{
"type": "FeatureCollection",
"name": "altres_punts_260120",
"crs": { "type": "name", "properties": { "name": "urn:ogc:def:crs:OGC:1.3:CRS84" } },
"features": [
{ "type": "Feature", "properties": { "fid": 93, "Nom": "Puig de Santa Magdalena", "Estat": "molt bo", "Data_edicio": "2026-01-14T17:59:58.983Z", "Tipus": "punt d'interès", "Imatge": null, "territori": "Mallorca", "Descripcio": null, "link": null, "visibilitat": true, "id_talaia": 94, "simbologia": "altres - participen", "participacio_mati": true, "participacio_capvespre": true, "municipi": "Inca" }, "geometry": { "type": "Point", "coordinates": [ 2.956991717359039, 39.728827250798048 ] } },
{ "type": "Feature", "properties": { "fid": 168, "Nom": "Far de Ses Coves Blanques", "Estat": "bo", "Data_edicio": "2026-01-17T20:47:56.064Z", "Tipus": "punt d'interès", "Imatge": null, "territori": "Eïvissa", "Descripcio": null, "link": null, "visibilitat": false, "id_talaia": null, "simbologia": "altres - participen", "participacio_mati": true, "participacio_capvespre": false, "municipi": "Sant Antoni de Portmany" }, "geometry": { "type": "Point", "coordinates": [ 1.298268720862905, 38.979447211696659 ] } },
{ "type": "Feature", "properties": { "fid": 166, "Nom": "Campanar de Santa Margalida", "Estat": "bo", "Data_edicio": "2026-01-17T20:43:25.997Z", "Tipus": "campanar", "Imatge": null, "territori": "Mallorca", "Descripcio": null, "link": null, "visibilitat": false, "id_talaia": null, "simbologia": "altres - participen", "participacio_mati": true, "participacio_capvespre": true, "municipi": "Santa Margalida" }, "geometry": { "type": "Point", "coordinates": [ 3.101067215411463, 39.703095467534709 ] } },
{ "type": "Feature", "properties": { "fid": 167, "Nom": "Ermita de la Pau, Puig de Son Seguí", "Estat": "bo", "Data_edicio": "2026-01-17T20:45:27.921Z", "Tipus": "punt d'interès", "Imatge": null, "territori": "Mallorca", "Descripcio": null, "link": null, "visibilitat": false, "id_talaia": null, "simbologia": "altres - participen", "participacio_mati": true, "participacio_capvespre": false, "municipi": "Santa Maria del Camí" }, "geometry": { "type": "Point", "coordinates": [ 2.811631911396025, 39.619273909303388 ] } },
{ "type": "Feature", "properties": { "fid": 164, "Nom": "Talaiot d'en Baulenes", "Estat": "bo", "Data_edicio": "2026-01-17T20:40:20.609Z", "Tipus": "talaiot", "Imatge": null, "territori": "Mallorca", "Descripcio": null, "link": null, "visibilitat": true, "id_talaia": null, "simbologia": "altres - participen", "participacio_mati": true, "participacio_capvespre": true, "municipi": "Porreres" }, "geometry": { "type": "Point", "coordinates": [ 2.985588513332619, 39.475453488218719 ] } },
{ "type": "Feature", "properties": { "fid": 165, "Nom": "Necròpolis de Son Real", "Estat": "bo", "Data_edicio": "2026-01-17T20:42:01.832Z", "Tipus": "talaiot", "Imatge": null, "territori": "Mallorca", "Descripcio": null, "link": null, "visibilitat": false, "id_talaia": null, "simbologia": "altres - participen", "participacio_mati": true, "participacio_capvespre": true, "municipi": "Santa Margalida" }, "geometry": { "type": "Point", "coordinates": [ 3.182260458389705, 39.754997630908413 ] } },
{ "type": "Feature", "properties": { "fid": 163, "Nom": "Mirador de Can Corraca", "Estat": "molt bo", "Data_edicio": "2026-01-17T20:39:13.546Z", "Tipus": "punt d'interès", "Imatge": null, "territori": "Mallorca", "Descripcio": null, "link": null, "visibilitat": null, "id_talaia": null, "simbologia": "altres - participen", "participacio_mati": true, "participacio_capvespre": true, "municipi": "Deià" }, "geometry": { "type": "Point", "coordinates": [ 2.645966174504571, 39.749408724766347 ] } },
{ "type": "Feature", "properties": { "fid": 136, "Nom": "El Calvari", "Estat": "bo", "Data_edicio": "2026-01-14T20:22:49.028Z", "Tipus": "campanar", "Imatge": null, "territori": "Mallorca", "Descripcio": null, "link": null, "visibilitat": false, "id_talaia": null, "simbologia": "altres - participen", "participacio_mati": true, "participacio_capvespre": true, "municipi": "Pollença" }, "geometry": { "type": "Point", "coordinates": [ 3.0119375, 39.8803125 ] } },
{ "type": "Feature", "properties": { "fid": 3, "Nom": "Museu de la Mar, Sóller", "Estat": "molt bo", "Data_edicio": "2026-01-14T17:59:58.867Z", "Tipus": "punt d'interès", "Imatge": "https://www.google.com/maps/place/Museu+de+la+Mar+Port+de+S%C3%B3ller/@39.7976464,2.6914643,3a,75y,90t/data=!3m8!1e2!3m6!1sCIHM0ogKEICAgIDOod2-aw!2e10!3e12!6shttps:%2F%2Flh3.googleusercontent.com%2Fgps-cs-s%2FAG0ilSw8jk_HApWzhfZYyJ5fHS3KjhWD1PFDHK6ad_HC--7_5hEfFXpMf0JdjF-3D5_e5JUOb20vAASdc1F4m4eLkyJwSgLTvzKz45nwzArL60aaVypf62nTueeLz7JDskXFMCx-U7SN%3Dw203-h152-k-no!7i4032!8i3024!4m7!3m6!1s0x1297e5e4ef0873ff:0x4082743a7661af8f!8m2!3d39.7976464!4d2.6914643!10e5!16s%2Fg%2F120z1hwz!5m1!1e1?entry=ttu&g_ep=EgoyMDI1MTIwMi4wIKXMDSoASAFQAw%3D%3D#", "territori": "Mallorca", "Descripcio": null, "link": null, "visibilitat": true, "id_talaia": 3, "simbologia": "altres - participen", "participacio_mati": true, "participacio_capvespre": true, "municipi": "Sóller" }, "geometry": { "type": "Point", "coordinates": [ 2.691535596922676, 39.797843514174261 ] } },
{ "type": "Feature", "properties": { "fid": 134, "Nom": "Campanar de Lloret", "Estat": "bo", "Data_edicio": "2026-01-14T17:59:59.033Z", "Tipus": "campanar", "Imatge": null, "territori": "Mallorca", "Descripcio": null, "link": null, "visibilitat": false, "id_talaia": null, "simbologia": "altres - participen", "participacio_mati": true, "participacio_capvespre": true, "municipi": "Lloret de Vistalegre" }, "geometry": { "type": "Point", "coordinates": [ 2.9754219, 39.6182125 ] } },
{ "type": "Feature", "properties": { "fid": 135, "Nom": "Campanar de Deià", "Estat": "bo", "Data_edicio": "2026-01-14T17:59:59.035Z", "Tipus": "campanar", "Imatge": null, "territori": "Mallorca", "Descripcio": null, "link": null, "visibilitat": false, "id_talaia": null, "simbologia": "altres - participen", "participacio_mati": true, "participacio_capvespre": true, "municipi": "Deià" }, "geometry": { "type": "Point", "coordinates": [ 2.6466719, 39.7488375 ] } },
{ "type": "Feature", "properties": { "fid": 132, "Nom": "Campanar de Costitx", "Estat": "bo", "Data_edicio": "2026-01-14T17:59:59.030Z", "Tipus": "campanar", "Imatge": null, "territori": "Mallorca", "Descripcio": null, "link": null, "visibilitat": false, "id_talaia": null, "simbologia": "altres - participen", "participacio_mati": true, "participacio_capvespre": true, "municipi": "Costitx" }, "geometry": { "type": "Point", "coordinates": [ 2.9498594, 39.6570625 ] } },
{ "type": "Feature", "properties": { "fid": 133, "Nom": "Campanar de Campanet", "Estat": "bo", "Data_edicio": "2026-01-14T17:59:59.033Z", "Tipus": "campanar", "Imatge": null, "territori": "Mallorca", "Descripcio": null, "link": null, "visibilitat": false, "id_talaia": null, "simbologia": "altres - participen", "participacio_mati": true, "participacio_capvespre": true, "municipi": "Campanet" }, "geometry": { "type": "Point", "coordinates": [ 2.9657656, 39.7747125 ] } },
{ "type": "Feature", "properties": { "fid": 130, "Nom": "Campanar de Santa Eugènia", "Estat": "bo", "Data_edicio": "2026-01-14T17:59:59.028Z", "Tipus": "campanar", "Imatge": null, "territori": "Mallorca", "Descripcio": null, "link": null, "visibilitat": false, "id_talaia": null, "simbologia": "altres - participen", "participacio_mati": true, "participacio_capvespre": true, "municipi": "Santa Eugènia" }, "geometry": { "type": "Point", "coordinates": [ 2.8372969, 39.62218750000001 ] } },
{ "type": "Feature", "properties": { "fid": 131, "Nom": "Campanar de Muro", "Estat": "bo", "Data_edicio": "2026-01-14T17:59:59.029Z", "Tipus": "campanar", "Imatge": null, "territori": "Mallorca", "Descripcio": null, "link": null, "visibilitat": false, "id_talaia": null, "simbologia": "altres - participen", "participacio_mati": true, "participacio_capvespre": true, "municipi": "Muro" }, "geometry": { "type": "Point", "coordinates": [ 3.0569844, 39.7369375 ] } },
{ "type": "Feature", "properties": { "fid": 144, "Nom": "Museu de la Mar de Mallorca", "Estat": "bo", "Data_edicio": "2026-01-14T17:59:59.045Z", "Tipus": "punt d'interès", "Imatge": null, "territori": "Mallorca", "Descripcio": null, "link": null, "visibilitat": false, "id_talaia": null, "simbologia": "altres - participen", "participacio_mati": true, "participacio_capvespre": true, "municipi": "Palma" }, "geometry": { "type": "Point", "coordinates": [ 2.6484346, 39.5666284 ] } },
{ "type": "Feature", "properties": { "fid": 145, "Nom": "Molí de Santa Ponça", "Estat": "bo", "Data_edicio": "2026-01-14T17:59:59.046Z", "Tipus": "punt d'interès", "Imatge": null, "territori": "Mallorca", "Descripcio": null, "link": null, "visibilitat": false, "id_talaia": null, "simbologia": "altres - participen", "participacio_mati": true, "participacio_capvespre": true, "municipi": "Calvià" }, "geometry": { "type": "Point", "coordinates": [ 2.494468778689528, 39.521316761522598 ] } },
{ "type": "Feature", "properties": { "fid": 142, "Nom": "Campanar de Vilafranca de Bonany", "Estat": "bo", "Data_edicio": "2026-01-14T20:25:34.947Z", "Tipus": "campanar", "Imatge": null, "territori": "Mallorca", "Descripcio": null, "link": null, "visibilitat": false, "id_talaia": null, "simbologia": "altres - participen", "participacio_mati": true, "participacio_capvespre": true, "municipi": "Vilafranca de Bonany" }, "geometry": { "type": "Point", "coordinates": [ 3.0874531, 39.5679625 ] } },
{ "type": "Feature", "properties": { "fid": 143, "Nom": "Campanar de Sineu", "Estat": "molt bo", "Data_edicio": "2026-01-14T17:59:59.044Z", "Tipus": "campanar", "Imatge": null, "territori": "Mallorca", "Descripcio": null, "link": null, "visibilitat": false, "id_talaia": null, "simbologia": "altres - participen", "participacio_mati": true, "participacio_capvespre": true, "municipi": "Sineu" }, "geometry": { "type": "Point", "coordinates": [ 3.0106375, 39.64308470000001 ] } },
{ "type": "Feature", "properties": { "fid": 140, "Nom": "Campanar de Selva", "Estat": "bo", "Data_edicio": "2026-01-14T17:59:59.040Z", "Tipus": "campanar", "Imatge": null, "territori": "Mallorca", "Descripcio": null, "link": null, "visibilitat": false, "id_talaia": null, "simbologia": "altres - participen", "participacio_mati": true, "participacio_capvespre": true, "municipi": "Selva" }, "geometry": { "type": "Point", "coordinates": [ 2.9010227, 39.754752 ] } },
{ "type": "Feature", "properties": { "fid": 141, "Nom": "Campanar de Santa Maria", "Estat": null, "Data_edicio": "2026-01-14T17:59:59.042Z", "Tipus": "campanar", "Imatge": null, "territori": "Mallorca", "Descripcio": null, "link": null, "visibilitat": false, "id_talaia": null, "simbologia": "altres - participen", "participacio_mati": true, "participacio_capvespre": true, "municipi": "Santa María del Camí" }, "geometry": { "type": "Point", "coordinates": [ 2.7797969, 39.647687500000011 ] } },
{ "type": "Feature", "properties": { "fid": 138, "Nom": "Església Nova de Biniamar", "Estat": "bo", "Data_edicio": "2026-01-14T17:59:59.038Z", "Tipus": "campanar", "Imatge": null, "territori": "Mallorca", "Descripcio": null, "link": null, "visibilitat": false, "id_talaia": null, "simbologia": "altres - participen", "participacio_mati": true, "participacio_capvespre": true, "municipi": "Selva" }, "geometry": { "type": "Point", "coordinates": [ 2.8731813, 39.7305079 ] } },
{ "type": "Feature", "properties": { "fid": 139, "Nom": "Santuari de Sant Honorat", "Estat": "bo", "Data_edicio": "2026-01-14T17:59:59.039Z", "Tipus": "campanar", "Imatge": null, "territori": "Mallorca", "Descripcio": null, "link": null, "visibilitat": false, "id_talaia": null, "simbologia": "altres - participen", "participacio_mati": true, "participacio_capvespre": true, "municipi": "Algaida" }, "geometry": { "type": "Point", "coordinates": [ 2.9281244, 39.5196879 ] } },
{ "type": "Feature", "properties": { "fid": 153, "Nom": "Jaciment de s'Illot de sa Galera - es Carnatge", "Estat": "ruita total", "Data_edicio": "2026-01-14T21:05:24.381Z", "Tipus": "punt d'interès", "Imatge": "https://uh.gsstatic.es/sfAttachPlugin/2316979.jpg", "territori": "Mallorca", "Descripcio": null, "link": null, "visibilitat": false, "id_talaia": null, "simbologia": "altres - participen", "participacio_mati": true, "participacio_capvespre": true, "municipi": "Palma" }, "geometry": { "type": "Point", "coordinates": [ 2.70694027548854, 39.534709588452131 ] } },
{ "type": "Feature", "properties": { "fid": 150, "Nom": "Molí de sa Cabaneta-Museu del Fang", "Estat": "molt bo", "Data_edicio": "2026-01-14T19:41:17.022Z", "Tipus": "punt d'interès", "Imatge": null, "territori": "Mallorca", "Descripcio": null, "link": null, "visibilitat": false, "id_talaia": null, "simbologia": "altres - participen", "participacio_mati": true, "participacio_capvespre": true, "municipi": "Marratxí" }, "geometry": { "type": "Point", "coordinates": [ 2.7470624, 39.6213106 ] } },
{ "type": "Feature", "properties": { "fid": 151, "Nom": "Llaüt Alzina", "Estat": "molt bo", "Data_edicio": "2026-01-14T17:59:59.054Z", "Tipus": "vaixell", "Imatge": "https://uh.gsstatic.es/sfAttachPlugin/3272601.jpg", "territori": "Mallorca", "Descripcio": null, "link": null, "visibilitat": false, "id_talaia": null, "simbologia": "altres - participen", "participacio_mati": true, "participacio_capvespre": true, "municipi": null }, "geometry": { "type": "Point", "coordinates": [ 2.6564844, 39.5314125 ] } },
{ "type": "Feature", "properties": { "fid": 148, "Nom": "Jaciment de Son Cladera", "Estat": "bo", "Data_edicio": "2026-01-14T17:59:59.050Z", "Tipus": "talaiot", "Imatge": null, "territori": "Mallorca", "Descripcio": null, "link": null, "visibilitat": false, "id_talaia": null, "simbologia": "altres - participen", "participacio_mati": true, "participacio_capvespre": true, "municipi": "Sa Pobla" }, "geometry": { "type": "Point", "coordinates": [ 3.0096456, 39.8002964 ] } },
{ "type": "Feature", "properties": { "fid": 149, "Nom": "Poblat talaiòtic del Pou Celat", "Estat": "bo", "Data_edicio": "2026-01-14T17:59:59.051Z", "Tipus": "punt d'interès", "Imatge": null, "territori": "Mallorca", "Descripcio": null, "link": null, "visibilitat": false, "id_talaia": null, "simbologia": "altres - participen", "participacio_mati": true, "participacio_capvespre": true, "municipi": "Felanitx" }, "geometry": { "type": "Point", "coordinates": [ 3.0887133, 39.4805082 ] } },
{ "type": "Feature", "properties": { "fid": 146, "Nom": "Poblat Talaiòtic de s'Illot", "Estat": null, "Data_edicio": "2026-01-14T17:59:59.047Z", "Tipus": "campanar", "Imatge": null, "territori": "Mallorca", "Descripcio": null, "link": null, "visibilitat": false, "id_talaia": null, "simbologia": "altres - participen", "participacio_mati": true, "participacio_capvespre": true, "municipi": "Sant Llorenç des Cardassar" }, "geometry": { "type": "Point", "coordinates": [ 3.372159, 39.568696099999983 ] } },
{ "type": "Feature", "properties": { "fid": 147, "Nom": "Monestir de Santa Llucía, Mancor", "Estat": "bo", "Data_edicio": "2026-01-14T17:59:59.049Z", "Tipus": "campanar", "Imatge": null, "territori": "Mallorca", "Descripcio": null, "link": null, "visibilitat": false, "id_talaia": null, "simbologia": "altres - participen", "participacio_mati": true, "participacio_capvespre": true, "municipi": "Mancor de la Vall" }, "geometry": { "type": "Point", "coordinates": [ 2.8664179, 39.7508298 ] } },
{ "type": "Feature", "properties": { "fid": 160, "Nom": "Plaça de Consell", "Estat": "molt bo", "Data_edicio": "2026-01-17T18:31:11.087Z", "Tipus": "punt d'interès", "Imatge": null, "territori": "Mallorca", "Descripcio": null, "link": null, "visibilitat": null, "id_talaia": null, "simbologia": "altres - participen", "participacio_mati": true, "participacio_capvespre": true, "municipi": "Consell" }, "geometry": { "type": "Point", "coordinates": [ 2.813399444549807, 39.668681866855707 ] } },
{ "type": "Feature", "properties": { "fid": 158, "Nom": "Coll d'en Se (camí Vell des Barranc de Biniaraix)", "Estat": "bo", "Data_edicio": "2026-01-14T21:05:28.091Z", "Tipus": "punt d'interès", "Imatge": null, "territori": "Mallorca", "Descripcio": null, "link": null, "visibilitat": false, "id_talaia": null, "simbologia": "altres - participen", "participacio_mati": true, "participacio_capvespre": true, "municipi": "Sóller" }, "geometry": { "type": "Point", "coordinates": [ 2.746875173729321, 39.766786589563615 ] } },
{ "type": "Feature", "properties": { "fid": 159, "Nom": "Campanar de Bunyola", "Estat": "bo", "Data_edicio": "2026-01-14T21:05:29.044Z", "Tipus": "campanar", "Imatge": null, "territori": "Mallorca", "Descripcio": null, "link": null, "visibilitat": false, "id_talaia": null, "simbologia": "altres - participen", "participacio_mati": true, "participacio_capvespre": true, "municipi": "Bunyola" }, "geometry": { "type": "Point", "coordinates": [ 2.69922829565526, 39.696148303367622 ] } },
{ "type": "Feature", "properties": { "fid": 25, "Nom": "Torre des Puig de sa Moneda", "Estat": "bo", "Data_edicio": "2026-01-14T20:20:49.567Z", "Tipus": "punt d'interès", "Imatge": "https://www.google.com/maps/place/Puig+De+La+Moneda/@39.7063631,2.5815804,3a,75y,90t/data=!3m8!1e2!3m6!1sCIHM0ogKEICAgICque77sAE!2e10!3e12!6shttps:%2F%2Flh3.googleusercontent.com%2Fgps-cs-s%2FAG0ilSyN5JYTiB8lAOMgyTSBR0HoXT3KbJX9u-CKofHYTwHgkwFfMgP4FjlpxiTwKIe9ky_QWvplrGLOEOnN7OlKbCPxPJkUMAIYXSYgObNvAV0S4JlBnZmX51URNHqqGfR8p1b752fkVQ%3Dw203-h152-k-no!7i4000!8i3000!4m7!3m6!1s0x1297f3d3516f3f03:0x4bf4d9183f1c8b68!8m2!3d39.7063803!4d2.5816218!10e5!16s%2Fg%2F11g6myq7xr!5m1!1e1?entry=ttu&g_ep=EgoyMDI1MTIwMi4wIKXMDSoASAFQAw%3D%3D#", "territori": "Mallorca", "Descripcio": null, "link": "https://www.eldiscretoencantodeviajar.com/mirador-puig-de-la-moneda-valldemossa/", "visibilitat": true, "id_talaia": 25, "simbologia": "altres - participen", "participacio_mati": true, "participacio_capvespre": true, "municipi": "Valldemossa" }, "geometry": { "type": "Point", "coordinates": [ 2.581680809638042, 39.706462767325498 ] } },
{ "type": "Feature", "properties": { "fid": 156, "Nom": "Torre de ca la Gran Cristiana", "Estat": "molt bo", "Data_edicio": "2026-01-14T21:05:26.447Z", "Tipus": "fortalesa", "Imatge": null, "territori": "Mallorca", "Descripcio": null, "link": null, "visibilitat": false, "id_talaia": null, "simbologia": "altres - participen", "participacio_mati": true, "participacio_capvespre": true, "municipi": "Pollença" }, "geometry": { "type": "Point", "coordinates": [ 3.016176598643877, 39.87587767162276 ] } },
{ "type": "Feature", "properties": { "fid": 157, "Nom": "Torre des Sagrament o de Son Mas", "Estat": "molt bo", "Data_edicio": "2026-01-14T21:05:27.311Z", "Tipus": "fortalesa", "Imatge": null, "territori": "Mallorca", "Descripcio": null, "link": null, "visibilitat": false, "id_talaia": null, "simbologia": "altres - participen", "participacio_mati": true, "participacio_capvespre": true, "municipi": "Andratx" }, "geometry": { "type": "Point", "coordinates": [ 2.424093792851675, 39.576283499358858 ] } },
{ "type": "Feature", "properties": { "fid": 154, "Nom": "Campanar de Búger", "Estat": "bo", "Data_edicio": "2026-01-14T19:50:56.555Z", "Tipus": "campanar", "Imatge": null, "territori": "Mallorca", "Descripcio": null, "link": null, "visibilitat": false, "id_talaia": null, "simbologia": "altres - participen", "participacio_mati": true, "participacio_capvespre": true, "municipi": "Búger" }, "geometry": { "type": "Point", "coordinates": [ 2.985184000169901, 39.759042684167859 ] } },
{ "type": "Feature", "properties": { "fid": 155, "Nom": "Puig de Lloseta", "Estat": "desaparegut", "Data_edicio": "2026-01-14T21:05:25.659Z", "Tipus": "punt d'interès", "Imatge": null, "territori": "Mallorca", "Descripcio": null, "link": null, "visibilitat": false, "id_talaia": null, "simbologia": "altres - participen", "participacio_mati": true, "participacio_capvespre": true, "municipi": "Lloseta" }, "geometry": { "type": "Point", "coordinates": [ 2.859965080139876, 39.726912924697878 ] } },
{ "type": "Feature", "properties": { "fid": 112, "Nom": "Puig de Galatzó", "Estat": null, "Data_edicio": "2026-01-14T17:59:59.005Z", "Tipus": "punt d'interès", "Imatge": null, "territori": "Mallorca", "Descripcio": null, "link": null, "visibilitat": false, "id_talaia": null, "simbologia": "altres - participen", "participacio_mati": true, "participacio_capvespre": true, "municipi": "Calvià" }, "geometry": { "type": "Point", "coordinates": [ 2.483333, 39.633333 ] } },
{ "type": "Feature", "properties": { "fid": 113, "Nom": "Ermita de Crist Rei, Selva", "Estat": "molt deteriorat", "Data_edicio": "2026-01-14T17:59:59.006Z", "Tipus": "campanar", "Imatge": null, "territori": "Mallorca", "Descripcio": null, "link": null, "visibilitat": false, "id_talaia": null, "simbologia": "altres - participen", "participacio_mati": true, "participacio_capvespre": true, "municipi": "Selva" }, "geometry": { "type": "Point", "coordinates": [ 2.8968652, 39.7471655 ] } },
{ "type": "Feature", "properties": { "fid": 110, "Nom": "Santuari de Sant Salvador de Felanitx", "Estat": "molt bo", "Data_edicio": "2026-01-14T19:03:12.670Z", "Tipus": "campanar", "Imatge": null, "territori": "Mallorca", "Descripcio": null, "link": null, "visibilitat": false, "id_talaia": null, "simbologia": "altres - participen", "participacio_mati": true, "participacio_capvespre": true, "municipi": "Felanitx" }, "geometry": { "type": "Point", "coordinates": [ 3.1858444, 39.455530900000014 ] } },
{ "type": "Feature", "properties": { "fid": 111, "Nom": "Santuari de Cura", "Estat": "molt bo", "Data_edicio": "2026-01-14T17:59:59.004Z", "Tipus": "campanar", "Imatge": null, "territori": "Mallorca", "Descripcio": null, "link": null, "visibilitat": false, "id_talaia": null, "simbologia": "altres - participen", "participacio_mati": true, "participacio_capvespre": true, "municipi": "Algaida" }, "geometry": { "type": "Point", "coordinates": [ 2.9258281, 39.5272875 ] } },
{ "type": "Feature", "properties": { "fid": 108, "Nom": "Santuari de Bonany", "Estat": "molt bo", "Data_edicio": "2026-01-14T17:59:59Z", "Tipus": "campanar", "Imatge": null, "territori": "Mallorca", "Descripcio": null, "link": null, "visibilitat": null, "id_talaia": null, "simbologia": "altres - participen", "participacio_mati": true, "participacio_capvespre": true, "municipi": "Petra" }, "geometry": { "type": "Point", "coordinates": [ 3.1159985, 39.6136632 ] } },
{ "type": "Feature", "properties": { "fid": 109, "Nom": "Sagrat Cor de Jesús", "Estat": null, "Data_edicio": "2026-01-14T19:46:19.268Z", "Tipus": "punt d'interès", "Imatge": null, "territori": "Mallorca", "Descripcio": null, "link": null, "visibilitat": false, "id_talaia": null, "simbologia": "altres - participen", "participacio_mati": true, "participacio_capvespre": true, "municipi": "Esporles" }, "geometry": { "type": "Point", "coordinates": [ 2.567384, 39.6630913 ] } },
{ "type": "Feature", "properties": { "fid": 120, "Nom": "Talaiot de Son Fornés", "Estat": "bo", "Data_edicio": "2026-01-14T17:59:59.017Z", "Tipus": "talaiot", "Imatge": null, "territori": "Mallorca", "Descripcio": null, "link": null, "visibilitat": false, "id_talaia": null, "simbologia": "altres - participen", "participacio_mati": true, "participacio_capvespre": true, "municipi": "Montuïri" }, "geometry": { "type": "Point", "coordinates": [ 2.967038, 39.584028 ] } },
{ "type": "Feature", "properties": { "fid": 121, "Nom": "Campanar de La Seu", "Estat": "molt bo", "Data_edicio": "2026-01-14T17:59:59.018Z", "Tipus": "campanar", "Imatge": "https://www.eltemps.cat/imatges/articles/page-1416255750.jpg", "territori": "Mallorca", "Descripcio": null, "link": null, "visibilitat": false, "id_talaia": null, "simbologia": "altres - participen", "participacio_mati": true, "participacio_capvespre": true, "municipi": "Palma" }, "geometry": { "type": "Point", "coordinates": [ 2.6484531, 39.5677875 ] } },
{ "type": "Feature", "properties": { "fid": 118, "Nom": "Talaiot de na Nova", "Estat": "bo", "Data_edicio": "2026-01-14T17:59:59.014Z", "Tipus": "talaiot", "Imatge": null, "territori": "Mallorca", "Descripcio": null, "link": null, "visibilitat": false, "id_talaia": null, "simbologia": "altres - participen", "participacio_mati": true, "participacio_capvespre": true, "municipi": "Santanyí" }, "geometry": { "type": "Point", "coordinates": [ 3.1240105, 39.3204023 ] } },
{ "type": "Feature", "properties": { "fid": 119, "Nom": "Talaiot de Son Fred", "Estat": "bo", "Data_edicio": "2026-01-14T17:59:59.015Z", "Tipus": "talaiot", "Imatge": null, "territori": "Mallorca", "Descripcio": null, "link": null, "visibilitat": false, "id_talaia": null, "simbologia": "altres - participen", "participacio_mati": true, "participacio_capvespre": true, "municipi": "Sencelles" }, "geometry": { "type": "Point", "coordinates": [ 2.911956, 39.65867 ] } },
{ "type": "Feature", "properties": { "fid": 116, "Nom": "Talaiot des Racons", "Estat": "bo", "Data_edicio": "2026-01-14T17:59:59.010Z", "Tipus": "talaiot", "Imatge": null, "territori": "Mallorca", "Descripcio": null, "link": null, "visibilitat": false, "id_talaia": null, "simbologia": "altres - participen", "participacio_mati": true, "participacio_capvespre": true, "municipi": "Llubí" }, "geometry": { "type": "Point", "coordinates": [ 3.0072649, 39.6924594 ] } },
{ "type": "Feature", "properties": { "fid": 117, "Nom": "Talaiot de Na Pol", "Estat": "bo", "Data_edicio": "2026-01-14T17:59:59.011Z", "Tipus": "talaiot", "Imatge": null, "territori": "Mallorca", "Descripcio": null, "link": null, "visibilitat": false, "id_talaia": null, "simbologia": "altres - participen", "participacio_mati": true, "participacio_capvespre": true, "municipi": "Sant Llorenç des Cardassar" }, "geometry": { "type": "Point", "coordinates": [ 3.3669773, 39.5806657 ] } },
{ "type": "Feature", "properties": { "fid": 114, "Nom": "Puig de Sant Nofre", "Estat": null, "Data_edicio": "2026-01-14T17:59:59.008Z", "Tipus": "punt d'interès", "Imatge": null, "territori": "Mallorca", "Descripcio": null, "link": null, "visibilitat": false, "id_talaia": null, "simbologia": "altres - participen", "participacio_mati": true, "participacio_capvespre": true, "municipi": "Sant Joan" }, "geometry": { "type": "Point", "coordinates": [ 3.0491486, 39.6171325 ] } },
{ "type": "Feature", "properties": { "fid": 115, "Nom": "Puig de Maria", "Estat": "bo", "Data_edicio": "2026-01-14T20:22:59.841Z", "Tipus": "campanar", "Imatge": null, "territori": "Mallorca", "Descripcio": null, "link": null, "visibilitat": false, "id_talaia": null, "simbologia": "altres - participen", "participacio_mati": true, "participacio_capvespre": true, "municipi": "Pollença" }, "geometry": { "type": "Point", "coordinates": [ 3.022219, 39.869047 ] } },
{ "type": "Feature", "properties": { "fid": 128, "Nom": "Campanar de Moscari", "Estat": "bo", "Data_edicio": "2026-01-14T17:59:59.025Z", "Tipus": "campanar", "Imatge": null, "territori": "Mallorca", "Descripcio": null, "link": null, "visibilitat": false, "id_talaia": null, "simbologia": "altres - participen", "participacio_mati": true, "participacio_capvespre": true, "municipi": "Selva" }, "geometry": { "type": "Point", "coordinates": [ 2.9352922, 39.7651612 ] } },
{ "type": "Feature", "properties": { "fid": 129, "Nom": "Campanar de Maria de la Salut", "Estat": "bo", "Data_edicio": "2026-01-14T17:59:59.027Z", "Tipus": "campanar", "Imatge": null, "territori": "Mallorca", "Descripcio": null, "link": null, "visibilitat": false, "id_talaia": null, "simbologia": "altres - participen", "participacio_mati": true, "participacio_capvespre": true, "municipi": "Maria de la Salut" }, "geometry": { "type": "Point", "coordinates": [ 3.0731881, 39.666750599999986 ] } },
{ "type": "Feature", "properties": { "fid": 126, "Nom": "Campanar d'Orient", "Estat": "bo", "Data_edicio": "2026-01-14T17:59:59.023Z", "Tipus": "campanar", "Imatge": null, "territori": "Mallorca", "Descripcio": null, "link": null, "visibilitat": false, "id_talaia": null, "simbologia": "altres - participen", "participacio_mati": true, "participacio_capvespre": true, "municipi": "Bunyola" }, "geometry": { "type": "Point", "coordinates": [ 2.7596306, 39.7343152 ] } },
{ "type": "Feature", "properties": { "fid": 127, "Nom": "Campanar d'Estellencs", "Estat": "bo", "Data_edicio": "2026-01-14T17:59:59.025Z", "Tipus": "campanar", "Imatge": null, "territori": "Mallorca", "Descripcio": null, "link": null, "visibilitat": false, "id_talaia": null, "simbologia": "altres - participen", "participacio_mati": true, "participacio_capvespre": true, "municipi": "Estellencs" }, "geometry": { "type": "Point", "coordinates": [ 2.4811265, 39.6534687 ] } },
{ "type": "Feature", "properties": { "fid": 124, "Nom": "Campanar de Caimari", "Estat": "bo", "Data_edicio": "2026-01-14T17:59:59.021Z", "Tipus": "campanar", "Imatge": null, "territori": "Mallorca", "Descripcio": null, "link": null, "visibilitat": false, "id_talaia": null, "simbologia": "altres - participen", "participacio_mati": true, "participacio_capvespre": true, "municipi": "Selva" }, "geometry": { "type": "Point", "coordinates": [ 2.9038281, 39.7708875 ] } },
{ "type": "Feature", "properties": { "fid": 125, "Nom": "Campanar d'Alaró", "Estat": "bo", "Data_edicio": "2026-01-14T17:59:59.022Z", "Tipus": "campanar", "Imatge": null, "territori": "Mallorca", "Descripcio": null, "link": null, "visibilitat": false, "id_talaia": null, "simbologia": "altres - participen", "participacio_mati": true, "participacio_capvespre": true, "municipi": "Alaró" }, "geometry": { "type": "Point", "coordinates": [ 2.78933333333333, 39.705638888888885 ] } },
{ "type": "Feature", "properties": { "fid": 122, "Nom": "Campanar de Binissalem", "Estat": "bo", "Data_edicio": "2026-01-14T17:59:59.019Z", "Tipus": "campanar", "Imatge": null, "territori": "Mallorca", "Descripcio": null, "link": null, "visibilitat": false, "id_talaia": null, "simbologia": "altres - participen", "participacio_mati": true, "participacio_capvespre": true, "municipi": "Binissalem" }, "geometry": { "type": "Point", "coordinates": [ 2.8419181, 39.6890051 ] } },
{ "type": "Feature", "properties": { "fid": 123, "Nom": "Campanar de Calonge", "Estat": "bo", "Data_edicio": "2026-01-14T17:59:59.020Z", "Tipus": "campanar", "Imatge": null, "territori": "Mallorca", "Descripcio": null, "link": null, "visibilitat": false, "id_talaia": null, "simbologia": "altres - participen", "participacio_mati": true, "participacio_capvespre": true, "municipi": "Santanyí" }, "geometry": { "type": "Point", "coordinates": [ 3.2032344, 39.4000625 ] } },
{ "type": "Feature", "properties": { "fid": 64, "Nom": "Campanar del Santuari de Lluc", "Estat": "bo", "Data_edicio": "2026-01-14T20:23:39.317Z", "Tipus": "campanar", "Imatge": "https://www.google.com/maps/place/07315+Lluc,+Balearic+Islands/@39.8224927,2.8848365,3a,75y,90t/data=!3m8!1e2!3m6!1sCIHM0ogKEICAgIDckd6MSQ!2e10!3e12!6shttps:%2F%2Flh3.googleusercontent.com%2Fgps-cs-s%2FAG0ilSweGCL_H-LPY-cR7zMw9oe2Y0GAoSmUoZXyIeaeb6tqlUPLwCVBrpaqArj8ktRkYRidYSMHMY9N2H6kEKQATzju34nEF1KuRvOTOQEDXKZDVe1_V77QRiP-kkaykGMwyoHVF1XX%3Dw203-h152-k-no!7i4128!8i3096!4m7!3m6!1s0x1297dba778131779:0x1365807b66f96112!8m2!3d39.8224927!4d2.8848365!10e5!16s%2Fg%2F122vkvs4!5m1!1e1?entry=ttu&g_ep=EgoyMDI1MTIwMi4wIKXMDSoASAFQAw%3D%3D#", "territori": "Mallorca", "Descripcio": null, "link": null, "visibilitat": true, "id_talaia": 65, "simbologia": "altres - participen", "participacio_mati": true, "participacio_capvespre": true, "municipi": "Escorca" }, "geometry": { "type": "Point", "coordinates": [ 2.88472845832816, 39.822599481454546 ] } },
{ "type": "Feature", "properties": { "fid": 80, "Nom": "Torre d'en Valls", "Estat": "bo", "Data_edicio": "2026-01-17T19:03:51.075Z", "Tipus": "torre o talaia", "Imatge": null, "territori": "Catalunya", "Descripcio": "https://invarquit.cultura.gencat.cat/card/9054", "link": null, "visibilitat": false, "id_talaia": 81, "simbologia": "altres - no participen", "participacio_mati": false, "participacio_capvespre": false, "municipi": "Sant Vicenç de Montalt" }, "geometry": { "type": "Point", "coordinates": [ 2.5149933069146, 41.56760887283734 ] } },
{ "type": "Feature", "properties": { "fid": 81, "Nom": "Campanar de Santa Maria del Pi", "Estat": "molt bo", "Data_edicio": "2026-01-17T19:03:51.075Z", "Tipus": "campanar", "Imatge": null, "territori": "Catalunya", "Descripcio": null, "link": null, "visibilitat": false, "id_talaia": 82, "simbologia": "altres - no participen", "participacio_mati": false, "participacio_capvespre": false, "municipi": "Barcelona" }, "geometry": { "type": "Point", "coordinates": [ 2.174042120548972, 41.381960879581058 ] } },
{ "type": "Feature", "properties": { "fid": 78, "Nom": "Torre de Can Ratés, Santa Susanna", "Estat": "molt bo", "Data_edicio": "2026-01-17T19:03:51.075Z", "Tipus": "torre o talaia", "Imatge": null, "territori": "Catalunya", "Descripcio": null, "link": null, "visibilitat": false, "id_talaia": 79, "simbologia": "altres - no participen", "participacio_mati": false, "participacio_capvespre": false, "municipi": "Santa Susanna" }, "geometry": { "type": "Point", "coordinates": [ 2.708542908443669, 41.640281529772224 ] } },
{ "type": "Feature", "properties": { "fid": 79, "Nom": "Torre de Can Nadal", "Estat": "molt bo", "Data_edicio": "2026-01-17T19:03:51.075Z", "Tipus": "torre o talaia", "Imatge": null, "territori": "Catalunya", "Descripcio": null, "link": null, "visibilitat": false, "id_talaia": 80, "simbologia": "altres - no participen", "participacio_mati": false, "participacio_capvespre": false, "municipi": "Vilassar de Mar" }, "geometry": { "type": "Point", "coordinates": [ 2.394505371057721, 41.503416937916725 ] } },
{ "type": "Feature", "properties": { "fid": 76, "Nom": "Torre de la Creu o de Cadaqués", "Estat": "molt deteriorat", "Data_edicio": "2026-01-17T19:03:51.075Z", "Tipus": "torre o talaia", "Imatge": "https://www.poblesdecatalunya.cat/fotos/normal/CDQ025.jpeg", "territori": "Catalunya", "Descripcio": null, "link": null, "visibilitat": false, "id_talaia": 77, "simbologia": "altres - no participen", "participacio_mati": false, "participacio_capvespre": false, "municipi": "Cadaqués" }, "geometry": { "type": "Point", "coordinates": [ 3.279589898034613, 42.290538221489882 ] } },
{ "type": "Feature", "properties": { "fid": 77, "Nom": "Castell de Montagut, Llagostera", "Estat": "deteriorat", "Data_edicio": "2026-01-17T19:03:51.075Z", "Tipus": "fortalesa", "Imatge": null, "territori": "Catalunya", "Descripcio": null, "link": null, "visibilitat": false, "id_talaia": 78, "simbologia": "altres - no participen", "participacio_mati": false, "participacio_capvespre": false, "municipi": "Llagostera" }, "geometry": { "type": "Point", "coordinates": [ 2.9390076, 41.7660143 ] } },
{ "type": "Feature", "properties": { "fid": 75, "Nom": "Castell de Moraire", "Estat": "molt bo", "Data_edicio": "2026-01-17T19:03:51.075Z", "Tipus": "fortalesa", "Imatge": null, "territori": "País Valencià", "Descripcio": null, "link": null, "visibilitat": false, "id_talaia": 76, "simbologia": "altres - no participen", "participacio_mati": false, "participacio_capvespre": false, "municipi": "Teulada" }, "geometry": { "type": "Point", "coordinates": [ 0.1326488, 38.6867214 ] } },
{ "type": "Feature", "properties": { "fid": 84, "Nom": "Castell d'Orrit", "Estat": "ruita total", "Data_edicio": "2026-01-17T19:03:51.091Z", "Tipus": "fortalesa", "Imatge": null, "territori": "Catalunya", "Descripcio": null, "link": null, "visibilitat": false, "id_talaia": 85, "simbologia": "altres - no participen", "participacio_mati": false, "participacio_capvespre": false, "municipi": "Tremp" }, "geometry": { "type": "Point", "coordinates": [ 0.740473380349549, 42.256555974338866 ] } },
{ "type": "Feature", "properties": { "fid": 82, "Nom": "Castell de Verdú", "Estat": "bo", "Data_edicio": "2026-01-17T19:03:51.091Z", "Tipus": "fortalesa", "Imatge": null, "territori": "Catalunya", "Descripcio": null, "link": null, "visibilitat": false, "id_talaia": 83, "simbologia": "altres - no participen", "participacio_mati": false, "participacio_capvespre": false, "municipi": "Verdú" }, "geometry": { "type": "Point", "coordinates": [ 1.1439289, 41.6108506 ] } },
{ "type": "Feature", "properties": { "fid": 83, "Nom": "Castell de Guardamar", "Estat": "deteriorat", "Data_edicio": "2026-01-17T19:03:51.091Z", "Tipus": "fortalesa", "Imatge": null, "territori": "País Valencià", "Descripcio": "https://www.urbipedia.org/hoja/Castillo_de_Guardamar", "link": null, "visibilitat": false, "id_talaia": 84, "simbologia": "altres - no participen", "participacio_mati": false, "participacio_capvespre": false, "municipi": "Guardamar del Segura" }, "geometry": { "type": "Point", "coordinates": [ -0.650168870055477, 38.101535364789434 ] } }
]
}
