{
"type": "FeatureCollection",
"name": "talaies_v4_251208",
"crs": { "type": "name", "properties": { "name": "urn:ogc:def:crs:OGC:1.3:CRS84" } },
"xy_coordinate_resolution": 1e-15,
"features": [
{ "type": "Feature", "properties": { "fid": 1, "Nom": "Torre Picada", "Estat": "bo", "Data_edicio": "2025-12-08T12:06:27.801Z", "Tipus": "torre o talaia", "Imatge": "https://estaticos-cdn.prensaiberica.es/clip/892ae280-a861-4bd3-a5a8-16165e8951e3_woman-libre-1200_default_0.webp", "Adreca": "Mallorca", "Descripcio": null, "participacio": true, "link": null, "visibilitat": true, "id_talaia": 1, "simbologia": "talaies - participen" }, "geometry": { "type": "Point", "coordinates": [ 2.697434602860058, 39.806349129445429 ] } },
{ "type": "Feature", "properties": { "fid": 2, "Nom": "Torre de na Seca", "Estat": "ruita total", "Data_edicio": "2025-12-08T12:06:27.801Z", "Tipus": "torre o talaia", "Imatge": "https://www.tuscasasrurales.com/img-guias-viaje/baleares/fornalutx/max/torre-na-seca.jpg", "Adreca": "Mallorca", "Descripcio": null, "participacio": true, "link": null, "visibilitat": true, "id_talaia": 2, "simbologia": "talaies - participen" }, "geometry": { "type": "Point", "coordinates": [ 2.737931135072674, 39.823726117067743 ] } },
{ "type": "Feature", "properties": { "fid": 4, "Nom": "Torre de sa Pedrissa", "Estat": "deteriorat", "Data_edicio": "2025-12-08T12:06:27.808Z", "Tipus": "torre (port)", "Imatge": "https://fitaafita.com/wp-content/uploads/2013/10/SAM_0499.jpg", "Adreca": "Mallorca", "Descripcio": null, "participacio": true, "link": null, "visibilitat": true, "id_talaia": 4, "simbologia": "talaies - participen" }, "geometry": { "type": "Point", "coordinates": [ 2.635517328809085, 39.76461155445817 ] } },
{ "type": "Feature", "properties": { "fid": 5, "Nom": "Talaia de Can Palou", "Estat": "molt bo", "Data_edicio": "2025-12-08T12:06:27.808Z", "Tipus": "torre o talaia", "Imatge": "https://i0.wp.com/www.eldiscretoencantodeviajar.com/wp-content/uploads/2017/10/IMG_8688.jpg?w=2000&ssl=1", "Adreca": "Mallorca", "Descripcio": null, "participacio": true, "link": null, "visibilitat": true, "id_talaia": 5, "simbologia": "talaies - participen" }, "geometry": { "type": "Point", "coordinates": [ 2.783425598388788, 39.848356247562748 ] } },
{ "type": "Feature", "properties": { "fid": 6, "Nom": "Torre des Forat", "Estat": "deteriorat", "Data_edicio": "2025-12-08T12:05:35.225Z", "Tipus": "torre (port)", "Imatge": "https://i1.wp.com/bttsdemallorca.files.wordpress.com/2017/04/torre-des-forat-bttersmallorca.jpg?w=472&h=&crop&ssl=1", "Adreca": "Mallorca", "Descripcio": null, "participacio": false, "link": "https://ca.wikipedia.org/wiki/Torre_des_Forat", "visibilitat": true, "id_talaia": 6, "simbologia": "talaies - no participen" }, "geometry": { "type": "Point", "coordinates": [ 2.767079258911867, 39.841964642873528 ] } },
{ "type": "Feature", "properties": { "fid": 7, "Nom": "Torre de Lluc", "Estat": "ruita total", "Data_edicio": "2025-12-08T12:06:27.810Z", "Tipus": "torre o talaia", "Imatge": "https://blogger.googleusercontent.com/img/b/R29vZ2xl/AVvXsEg4gzSvM3kHsOSD-tC2EB8h-Up7ZcHao7Wv7DXAkC6l6SSNezlLM93U0_07Wx_3hmn4uwNOZynEOaFTFaIKliX40rFoMLjaqy9TB1OlR5VDReAS0JkOvgDU8mPn_C0hpdN3Fv3ewe9xS-wy/s640/Torre+de+Lluc+3+i+4-9-2012+135.jpg", "Adreca": "Mallorca", "Descripcio": null, "participacio": true, "link": null, "visibilitat": true, "id_talaia": 7, "simbologia": "talaies - participen" }, "geometry": { "type": "Point", "coordinates": [ 2.838658751334733, 39.864500828860081 ] } },
{ "type": "Feature", "properties": { "fid": 8, "Nom": "Torre d'es Bosc", "Estat": "ruita total", "Data_edicio": "2025-12-08T12:06:27.810Z", "Tipus": "torre (port)", "Imatge": "https://s0.wklcdn.com/image_125/3759315/122822482/78635214Master.jpg", "Adreca": "Mallorca", "Descripcio": null, "participacio": true, "link": null, "visibilitat": true, "id_talaia": 8, "simbologia": "talaies - participen" }, "geometry": { "type": "Point", "coordinates": [ 2.802164795803309, 39.850795746249965 ] } },
{ "type": "Feature", "properties": { "fid": 9, "Nom": "Talaia de Son Galceran", "Estat": "bo", "Data_edicio": "2025-12-08T12:06:27.813Z", "Tipus": "torre o talaia", "Imatge": "https://upload.wikimedia.org/wikipedia/commons/thumb/e/e4/Valldemossa._Torre_de_Son_Galceran_%282%29.jpg/1200px-Valldemossa._Torre_de_Son_Galceran_%282%29.jpg", "Adreca": "Mallorca", "Descripcio": null, "participacio": true, "link": "https://ca.wikipedia.org/wiki/Torre_de_Son_Galceran", "visibilitat": true, "id_talaia": 9, "simbologia": "talaies - participen" }, "geometry": { "type": "Point", "coordinates": [ 2.608783923587111, 39.732989848659471 ] } },
{ "type": "Feature", "properties": { "fid": 10, "Nom": "Na Pòpia", "Estat": "bo", "Data_edicio": "2025-12-08T12:06:27.813Z", "Tipus": "torre o talaia", "Imatge": "https://s1.wklcdn.com/image_90/2706578/101328181/66209584Master.jpg", "Adreca": "Mallorca", "Descripcio": null, "participacio": true, "link": null, "visibilitat": true, "id_talaia": 10, "simbologia": "talaies - participen" }, "geometry": { "type": "Point", "coordinates": [ 2.317182912984755, 39.586346013816268 ] } },
{ "type": "Feature", "properties": { "fid": 11, "Nom": "Talaia de Cala en Basset", "Estat": "regular", "Data_edicio": "2025-12-08T12:06:27.813Z", "Tipus": "torre o talaia", "Imatge": "https://fitaafita.com/wp-content/uploads/2015/01/SAM_4469.jpg", "Adreca": "Mallorca", "Descripcio": null, "participacio": true, "link": null, "visibilitat": true, "id_talaia": 11, "simbologia": "talaies - participen" }, "geometry": { "type": "Point", "coordinates": [ 2.350764429601648, 39.595914730256027 ] } },
{ "type": "Feature", "properties": { "fid": 12, "Nom": "Castell de Sant Elm", "Estat": "bo", "Data_edicio": "2025-12-08T12:06:27.813Z", "Tipus": "torre (port)", "Imatge": "https://visit-andratx.com/wp-content/uploads/2016/12/DSC_9552.jpg", "Adreca": "Mallorca", "Descripcio": null, "participacio": true, "link": null, "visibilitat": true, "id_talaia": 12, "simbologia": "talaies - participen" }, "geometry": { "type": "Point", "coordinates": [ 2.356169706400357, 39.576724470037441 ] } },
{ "type": "Feature", "properties": { "fid": 13, "Nom": "Albarcutx", "Estat": "bo", "Data_edicio": "2025-12-08T12:06:27.813Z", "Tipus": "torre o talaia", "Imatge": "https://estaticos-cdn.prensaiberica.es/clip/3d400cf1-45a9-45cc-9ba0-446f794357d8_16-9-aspect-ratio_default_0.webp", "Adreca": "Mallorca", "Descripcio": null, "participacio": true, "link": null, "visibilitat": true, "id_talaia": 13, "simbologia": "talaies - participen" }, "geometry": { "type": "Point", "coordinates": [ 3.11728785336211, 39.928775988472729 ] } },
{ "type": "Feature", "properties": { "fid": 14, "Nom": "Talaia d'Alcudia", "Estat": "desaparegut", "Data_edicio": "2025-12-08T12:06:27.813Z", "Tipus": "torre o talaia", "Imatge": "https://mymaps.usercontent.google.com/hostedimage/m/*/6ALCsBooB5QSHrs2Oi-cXGhY7aYtXnqexEH1ip-54CMSrSPMWsZLQbGNt4W90ei7XcZNx-uiwh7OQQJII5BKpIyEx0zvb9rPK50x3Kc0e1-FXoLRBtziTg8fqAbbjwVObCMf6dk0gQHDCCVM0U38aVlYXmOIDKxl4sBlTfYb3iPUp7-RPG-QutR9xTT5pCRzZyjwdYYicSH27gThnnBFQp-hzhmXyYQ?fife=s16383", "Adreca": "Mallorca", "Descripcio": null, "participacio": true, "link": null, "visibilitat": true, "id_talaia": 14, "simbologia": "talaies - participen" }, "geometry": { "type": "Point", "coordinates": [ 3.173785724474179, 39.866102227614881 ] } },
{ "type": "Feature", "properties": { "fid": 15, "Nom": "Torre Major d'Alcúdia", "Estat": "bo", "Data_edicio": "2025-12-08T12:06:27.813Z", "Tipus": "torre (port)", "Imatge": "https://mapcarta.com/es/W99694934", "Adreca": "Mallorca", "Descripcio": null, "participacio": true, "link": null, "visibilitat": true, "id_talaia": 15, "simbologia": "talaies - participen" }, "geometry": { "type": "Point", "coordinates": [ 3.147001070679224, 39.835582622432021 ] } },
{ "type": "Feature", "properties": { "fid": 16, "Nom": "Talaia Moreia", "Estat": "bo", "Data_edicio": "2025-12-08T12:06:27.813Z", "Tipus": "torre o talaia", "Imatge": "https://d2exd72xrrp1s7.cloudfront.net/www/000/1k7/y2/y2dr0obcmb881fg4b8jd4u9lc4q0qlcht-uhi65480607/0?width=2560&crop=false&q=70", "Adreca": "Mallorca", "Descripcio": null, "participacio": true, "link": "https://ca.wikipedia.org/wiki/Talaia_Moreia", "visibilitat": true, "id_talaia": 16, "simbologia": "talaies - participen" }, "geometry": { "type": "Point", "coordinates": [ 3.349955912701457, 39.780663394205064 ] } },
{ "type": "Feature", "properties": { "fid": 17, "Nom": "Talaia de Son Jaumell", "Estat": "deteriorat", "Data_edicio": "2025-12-08T12:06:27.813Z", "Tipus": "torre o talaia", "Imatge": "https://www.click-mallorca.com/blog/wp-content/uploads/2024/01/talaia-son-jaumell-6-1536x905.jpg", "Adreca": "Mallorca", "Descripcio": null, "participacio": true, "link": null, "visibilitat": true, "id_talaia": 17, "simbologia": "talaies - participen" }, "geometry": { "type": "Point", "coordinates": [ 3.451588059883519, 39.738340606154438 ] } },
{ "type": "Feature", "properties": { "fid": 18, "Nom": "Talaia de Cala Figuera", "Estat": "molt deteriorat", "Data_edicio": "2025-12-08T12:06:27.813Z", "Tipus": "torre o talaia", "Imatge": "https://mymaps.usercontent.google.com/hostedimage/m/*/6ALCsBopMkvb2i-NfqG8Gg3XyeojE3xs3iU6ICg4MTEc4x8PN5VdnpVTR6VIbz1upXTjLOX_Wu0pI2TQcbo9NnZWXcZFvIMUdXQAa8Acbw8-41DjSG3fUmwXkBZ0LT0YHMCUK0U_nx98vuWjj5JLF0K1_kMapyd48_PFr-4Uso2CLo79CJbv0GRLI7bf8afFvmce5ZF8-Zn8UPO9dq5YCB6xjI_6-h7s?fife=s16383", "Adreca": "Mallorca", "Descripcio": null, "participacio": true, "link": null, "visibilitat": true, "id_talaia": 18, "simbologia": "talaies - participen" }, "geometry": { "type": "Point", "coordinates": [ 2.520110347167342, 39.458202919536021 ] } },
{ "type": "Feature", "properties": { "fid": 19, "Nom": "Torre d'es Cap Andritxol", "Estat": "bo", "Data_edicio": "2025-12-08T12:06:27.813Z", "Tipus": "torre o talaia", "Imatge": "https://d2exd72xrrp1s7.cloudfront.net/www/000/1k4/1t/1tz6qd6n51cxny9bkocmyrvxk3aia9p4r-uhi10764291/0?width=2560&crop=false&q=70", "Adreca": "Mallorca", "Descripcio": null, "participacio": true, "link": null, "visibilitat": true, "id_talaia": 19, "simbologia": "talaies - participen" }, "geometry": { "type": "Point", "coordinates": [ 2.424929606639442, 39.529099635437511 ] } },
{ "type": "Feature", "properties": { "fid": 20, "Nom": "Talaia de Rafalbetx", "Estat": "ruita total", "Data_edicio": "2025-12-08T12:06:27.813Z", "Tipus": "torre o talaia", "Imatge": "https://mymaps.usercontent.google.com/hostedimage/m/*/6ALCsBooR3tA4um7P1kuWzg2DXtg_pCXC_sMg9GqGjoGAUblxXEEOW9qEFiehyV2u6Pwk8oXsDbdzhJCYgH5vr4sfrwvueik0O9v-lhRys_I18nJQWL0Tr16Z53-HYZPsj-aipTOMrHQXmDgSOI1UJgqlFmVpcWIcbqgBfuSoycYil7ADuR3aDB5ZXLxWnVjVbtBl_S42MBLxiVYP7XWDP45PuDsAaA?fife=s16383", "Adreca": "Mallorca", "Descripcio": null, "participacio": true, "link": null, "visibilitat": true, "id_talaia": 20, "simbologia": "talaies - participen" }, "geometry": { "type": "Point", "coordinates": [ 2.491895768122295, 39.473483189241719 ] } },
{ "type": "Feature", "properties": { "fid": 21, "Nom": "Canó de ses Illes Malgrats", "Estat": "desaparegut", "Data_edicio": "2025-12-08T12:06:27.829Z", "Tipus": "torre o talaia", "Imatge": "https://i0.wp.com/visitcalvia.org/wp-content/uploads/2021/03/Entrada-mirador-malgrats-es.jpg?w=540&ssl=1", "Adreca": "Mallorca", "Descripcio": null, "participacio": true, "link": null, "visibilitat": true, "id_talaia": 21, "simbologia": "talaies - participen" }, "geometry": { "type": "Point", "coordinates": [ 2.456710842335672, 39.505174212628106 ] } },
{ "type": "Feature", "properties": { "fid": 22, "Nom": "Torre de sa Mola", "Estat": "bo", "Data_edicio": "2025-12-08T12:06:27.829Z", "Tipus": "torre o talaia", "Imatge": "https://www.google.com/maps/place/Torre+de+Sa+Mola/@39.5359777,2.372382,3a,75y,90t/data=!3m8!1e2!3m6!1sCIHM0ogKEICAgID58aWdHA!2e10!3e12!6shttps:%2F%2Flh3.googleusercontent.com%2Fgps-cs-s%2FAG0ilSxaae6hs_aiPJha7pPtVdUagRtKvafMDj2DzfzQJt9MC_z9Qdx0MxIopAjrnScbakwLYc1uVnkdGmqcsZSz4m-1DafxbPTiEEzqAr5yJPdDRZ3v5X0IMbxpDpdMUtIIsAmuSHC6%3Dw114-h86-k-no!7i5259!8i3944!4m15!1m7!3m6!1s0x1298210036c0aced:0xff5793e7b26e2b3f!2sTorre+So+Na+Gaiana!8m2!3d39.5769598!4d2.4170877!16s%2Fg%2F11lydr__pf!3m6!1s0x129825db58039c8f:0xdfa3989bdbbe448c!8m2!3d39.5359777!4d2.372382!10e5!16s%2Fg%2F11qg2xhsz8!5m1!1e1?entry=ttu&g_ep=EgoyMDI1MTIwMi4wIKXMDSoASAFQAw%3D%3D#", "Adreca": "Mallorca", "Descripcio": null, "participacio": true, "link": null, "visibilitat": true, "id_talaia": 22, "simbologia": "talaies - participen" }, "geometry": { "type": "Point", "coordinates": [ 2.372429224684902, 39.535945555869013 ] } },
{ "type": "Feature", "properties": { "fid": 23, "Nom": "Torre Nova de s'Evangèlica", "Estat": "bo", "Data_edicio": "2025-12-08T12:06:27.829Z", "Tipus": "torre (port)", "Imatge": "https://upload.wikimedia.org/wikipedia/commons/b/b7/Sa_torre_Nova.jpg", "Adreca": "Mallorca", "Descripcio": null, "participacio": true, "link": "https://ca.wikipedia.org/wiki/Torre_de_l%27Evang%C3%A8lica", "visibilitat": true, "id_talaia": 23, "simbologia": "talaies - participen" }, "geometry": { "type": "Point", "coordinates": [ 2.427401113811866, 39.636229040319911 ] } },
{ "type": "Feature", "properties": { "fid": 24, "Nom": "Torre d'es Verger", "Estat": "bo", "Data_edicio": "2025-12-08T12:06:27.829Z", "Tipus": "torre o talaia", "Imatge": "https://xmallorca.com/mallorca-travel/uploads/2019/01/2015-11-03-11.57.45-800x419.jpeg", "Adreca": "Mallorca", "Descripcio": null, "participacio": true, "link": null, "visibilitat": true, "id_talaia": 24, "simbologia": "talaies - participen" }, "geometry": { "type": "Point", "coordinates": [ 2.500014168943103, 39.683671371438201 ] } },
{ "type": "Feature", "properties": { "fid": 26, "Nom": "Castell de Sant Carles", "Estat": "bo", "Data_edicio": "2025-12-08T12:06:27.829Z", "Tipus": "fortalesa", "Imatge": "https://castillomuseosancarlos.com/wp-content/uploads/2024/11/img_home_1.jpg", "Adreca": "Mallorca", "Descripcio": null, "participacio": true, "link": null, "visibilitat": true, "id_talaia": 26, "simbologia": "talaies - participen" }, "geometry": { "type": "Point", "coordinates": [ 2.623315147618887, 39.546363846357352 ] } },
{ "type": "Feature", "properties": { "fid": 27, "Nom": "Torre de Ses Illetes", "Estat": "bo", "Data_edicio": "2025-12-08T12:06:27.829Z", "Tipus": "torre o talaia", "Imatge": "https://upload.wikimedia.org/wikipedia/commons/thumb/5/57/Illa_de_Sa_Torre.JPG/1200px-Illa_de_Sa_Torre.JPG", "Adreca": "Mallorca", "Descripcio": null, "participacio": true, "link": "https://ca.wikipedia.org/wiki/Illa_de_la_Torre", "visibilitat": true, "id_talaia": 27, "simbologia": "talaies - participen" }, "geometry": { "type": "Point", "coordinates": [ 2.588610568474784, 39.529190219231523 ] } },
{ "type": "Feature", "properties": { "fid": 28, "Nom": "Torre de sa Porrassa", "Estat": "bo", "Data_edicio": "2025-12-08T12:06:27.829Z", "Tipus": "torre o talaia", "Imatge": "https://i.ytimg.com/vi/0xwnR2qfvmY/maxresdefault.jpg", "Adreca": "Mallorca", "Descripcio": null, "participacio": true, "link": "https://ca.wikipedia.org/wiki/Torre_de_sa_Porrassa", "visibilitat": true, "id_talaia": 28, "simbologia": "talaies - participen" }, "geometry": { "type": "Point", "coordinates": [ 2.54608053408742, 39.511367011530062 ] } },
{ "type": "Feature", "properties": { "fid": 29, "Nom": "Talaia d'es Cap Blanc", "Estat": "regular", "Data_edicio": "2025-12-08T12:06:27.829Z", "Tipus": "torre o talaia", "Imatge": "https://evasionauthentic.com/wp-content/uploads/2025/03/Cap-Blanc-falaises-vertigineuses-et-tortues-2-636x426.jpg", "Adreca": "Mallorca", "Descripcio": null, "participacio": true, "link": null, "visibilitat": true, "id_talaia": 29, "simbologia": "talaies - participen" }, "geometry": { "type": "Point", "coordinates": [ 2.790855262307339, 39.362868061112124 ] } },
{ "type": "Feature", "properties": { "fid": 30, "Nom": "Torre de Cala Pi", "Estat": "bo", "Data_edicio": "2025-12-08T12:06:27.829Z", "Tipus": "torre o talaia", "Imatge": "https://www.estilopalma.com/wp-content/uploads/2024/03/Talaia-Torre-Cala-Pi.jpg", "Adreca": "Mallorca", "Descripcio": null, "participacio": true, "link": "https://www.xn--castillosdeespaa-lub.es/es/content/cala-pi-torre-de", "visibilitat": true, "id_talaia": 30, "simbologia": "talaies - participen" }, "geometry": { "type": "Point", "coordinates": [ 2.835328827853113, 39.36150463771385 ] } },
{ "type": "Feature", "properties": { "fid": 31, "Nom": "Torre de s'Estalella", "Estat": "bo", "Data_edicio": "2025-12-08T12:06:27.829Z", "Tipus": "torre o talaia", "Imatge": "https://upload.wikimedia.org/wikipedia/commons/thumb/d/dd/Torre_S%27Estelella_i_Cabrera.JPG/1194px-Torre_S%27Estelella_i_Cabrera.JPG", "Adreca": "Mallorca", "Descripcio": null, "participacio": true, "link": "https://ca.wikipedia.org/wiki/Torre_de_s%27Estelella", "visibilitat": true, "id_talaia": 31, "simbologia": "talaies - participen" }, "geometry": { "type": "Point", "coordinates": [ 2.902070952744395, 39.358918376172369 ] } },
{ "type": "Feature", "properties": { "fid": 32, "Nom": "Castell de Cabrera", "Estat": "bo", "Data_edicio": "2025-12-08T12:29:04.907Z", "Tipus": "torre o talaia", "Imatge": "https://upload.wikimedia.org/wikipedia/commons/thumb/7/7c/Castelldecabrera.JPG/500px-Castelldecabrera.JPG", "Adreca": "Cabrera", "Descripcio": "Construït el 1400. Només al segle XVI el castell fou destruït i reconstruït almenys en deu ocasions.", "participacio": true, "link": "https://ca.wikipedia.org/wiki/Castell_de_Cabrera_(illa_de_Cabrera)", "visibilitat": true, "id_talaia": 32, "simbologia": "talaies - participen" }, "geometry": { "type": "Point", "coordinates": [ 2.931815907346594, 39.152699261654249 ] } },
{ "type": "Feature", "properties": { "fid": 33, "Nom": "Torre Nova de sa Roca Fesa", "Estat": "bo", "Data_edicio": "2025-12-08T12:06:27.829Z", "Tipus": "torre o talaia", "Imatge": "https://upload.wikimedia.org/wikipedia/commons/thumb/f/fd/Torre_Nova_de_sa_Roca_Fesa.jpg/760px-Mapcarta.jpg", "Adreca": "Mallorca", "Descripcio": "La torre Nova de la roca Fesa, s'erigí entre el 1663 i 1667 a instàncies dels veïns de\nSantanyí i la Universitat de Mallorca.\nLa torre presenta planta circular amb la base atalussada, construïda de paredat en verd i carreus de marés.\nTé un portal amb llinda de carreus de marés, situat a mitja alçada al costat nord-oest . A sobre hi ha un matacà.\nEn una de les zones on es conserven els carreus de marés originals hi ha un graffit incís d'una nau. Aquest se situava a la part baixa de la torre, a la dreta de l'escala de metall.\nBarceló i Danús ens diuen el següent: \"Talaia costera, construïda entre els anys 1663 i 1667, de planta circular de 7 m de diàmetre i 9,25 m d'alçada. Tant el parament exterior com el parament interior disposaven de quatre reforços de marés. La coberta era una cúpula de mitja taronja sostinguda per dos arcs de marés entrellaçats que partien de quatre suports també de marès i el terrat estava enllosat. Disposava d'un canó. ", "participacio": true, "link": "https://ca.wikipedia.org/wiki/Torre_de_la_Roca_Fesa", "visibilitat": true, "id_talaia": 33, "simbologia": "talaies - participen" }, "geometry": { "type": "Point", "coordinates": [ 3.150204745035322, 39.327239367282054 ] } },
{ "type": "Feature", "properties": { "fid": 34, "Nom": "Torre d'en Beu", "Estat": "bo", "Data_edicio": "2025-12-08T12:06:27.829Z", "Tipus": "torre o talaia", "Imatge": "https://upload.wikimedia.org/wikipedia/commons/thumb/e/ea/Torre_d%27en_Beu_Cala_Figuera_%28Santany%C3%AD%29_01.jpg/960px-Torre_d%27en_Beu_Cala_Figuera_%28Santany%C3%AD%29_01.jpg", "Adreca": "Mallorca", "Descripcio": null, "participacio": true, "link": "https://ca.wikipedia.org/wiki/Torre_d%27en_Beu", "visibilitat": true, "id_talaia": 34, "simbologia": "talaies - participen" }, "geometry": { "type": "Point", "coordinates": [ 3.176987933139198, 39.329686157207945 ] } },
{ "type": "Feature", "properties": { "fid": 35, "Nom": "Es Castell - Punta de n'Amer", "Estat": "bo", "Data_edicio": "2025-12-08T12:06:27.829Z", "Tipus": "torre o talaia", "Imatge": "https://upload.wikimedia.org/wikipedia/commons/thumb/8/8e/Castell_de_n%27Amer_09.jpg/1198px-Castell_de_n%27Amer_09.jpg", "Adreca": "Mallorca", "Descripcio": null, "participacio": true, "link": "https://ca.wikipedia.org/wiki/Castell_de_la_Punta_de_n%27Amer", "visibilitat": true, "id_talaia": 35, "simbologia": "talaies - participen" }, "geometry": { "type": "Point", "coordinates": [ 3.396179501655123, 39.579914869447499 ] } },
{ "type": "Feature", "properties": { "fid": 36, "Nom": "Torre d'es Vedrà", "Estat": "bo", "Data_edicio": "2025-12-08T12:05:35.227Z", "Tipus": "torre o talaia", "Imatge": null, "Adreca": "Eïvissa", "Descripcio": null, "participacio": false, "link": null, "visibilitat": false, "id_talaia": 36, "simbologia": "talaies - no participen" }, "geometry": { "type": "Point", "coordinates": [ 1.227958739362646, 38.87413904807363 ] } },
{ "type": "Feature", "properties": { "fid": 37, "Nom": "Torre de ses Portes", "Estat": "bo", "Data_edicio": "2025-12-08T12:05:35.227Z", "Tipus": "torre o talaia", "Imatge": null, "Adreca": "Eïvissa", "Descripcio": null, "participacio": false, "link": null, "visibilitat": false, "id_talaia": 37, "simbologia": "talaies - no participen" }, "geometry": { "type": "Point", "coordinates": [ 1.405844821243535, 38.832196347814637 ] } },
{ "type": "Feature", "properties": { "fid": 38, "Nom": "Talaia de Barbaria", "Estat": "bo", "Data_edicio": "2025-12-08T12:05:35.227Z", "Tipus": "torre o talaia", "Imatge": null, "Adreca": "Formentera", "Descripcio": null, "participacio": false, "link": null, "visibilitat": false, "id_talaia": 38, "simbologia": "talaies - no participen" }, "geometry": { "type": "Point", "coordinates": [ 1.396606287279562, 38.643760385825971 ] } },
{ "type": "Feature", "properties": { "fid": 39, "Nom": "Talaia d'es Cap Enderrocat", "Estat": "molt deteriorat", "Data_edicio": "2025-12-08T12:06:27.844Z", "Tipus": "torre o talaia", "Imatge": "https://europeanheritageawards-archive.eu/fileadmin/_processed_/b/d/csm_01-DURING_10bf2fa4f4.jpg", "Adreca": "Mallorca", "Descripcio": null, "participacio": true, "link": null, "visibilitat": true, "id_talaia": 39, "simbologia": "talaies - participen" }, "geometry": { "type": "Point", "coordinates": [ 2.723122239923286, 39.476676361034578 ] } },
{ "type": "Feature", "properties": { "fid": 40, "Nom": "Castell de Bellver", "Estat": "bo", "Data_edicio": "2025-12-08T12:06:27.844Z", "Tipus": "fortalesa", "Imatge": "https://www.zafirohotels.com/content/thumbs/800_450/content/imgsxml/blog/castillodebellver123.jpg", "Adreca": "Mallorca", "Descripcio": null, "participacio": true, "link": "https://ca.wikipedia.org/wiki/Castell_de_Bellver", "visibilitat": true, "id_talaia": 40, "simbologia": "talaies - participen" }, "geometry": { "type": "Point", "coordinates": [ 2.619293884821173, 39.564178327617348 ] } },
{ "type": "Feature", "properties": { "fid": 41, "Nom": "Castell d'el Rei", "Estat": "molt deteriorat", "Data_edicio": "2025-12-08T12:06:27.844Z", "Tipus": "fortalesa", "Imatge": "https://lh3.googleusercontent.com/umsh/AN6v0v4bGJa1AVzLvdekiQ408ceGY9y1CA5r0g3vkQ1hyJlGpnQv03K71csm6xos116CCwJWtIKjJIyqfLtZYNG24sSm_vGnjOGCDH1n5DKt35Dx1R6qBIGOLMZLZWvfl21JGg=s16383", "Adreca": "Mallorca", "Descripcio": null, "participacio": true, "link": null, "visibilitat": true, "id_talaia": 41, "simbologia": "talaies - participen" }, "geometry": { "type": "Point", "coordinates": [ 3.010278965887366, 39.922698027669803 ] } },
{ "type": "Feature", "properties": { "fid": 42, "Nom": "Torre Redona de Son Bauçà", "Estat": "bo", "Data_edicio": "2025-12-08T12:05:35.227Z", "Tipus": "fortalesa", "Imatge": "https://castillosnet.org//datos/baleares/deia/deia/torre_de_son_bauza/PM-CAS-055-1416001.jpg", "Adreca": "Mallorca", "Descripcio": null, "participacio": false, "link": "https://castillosnet.org//monumento.php?r=PM-CAS-055&seo=torre-de-son-bauz%C3%A1", "visibilitat": true, "id_talaia": 42, "simbologia": "talaies - no participen" }, "geometry": { "type": "Point", "coordinates": [ 2.641838011393585, 39.751160188162473 ] } },
{ "type": "Feature", "properties": { "fid": 43, "Nom": "Torre Esbucada", "Estat": "molt deteriorat", "Data_edicio": "2025-12-08T12:06:27.844Z", "Tipus": "torre o talaia", "Imatge": "https://upload.wikimedia.org/wikipedia/commons/thumb/9/91/Mallorca_Torre_Esbucada_asv2023-04_img1.jpg/960px-Mallorca_Torre_Esbucada_asv2023-04_img1.jpg", "Adreca": "Mallorca", "Descripcio": null, "participacio": true, "link": "https://de.wikipedia.org/wiki/Torre_Esbucada", "visibilitat": true, "id_talaia": 43, "simbologia": "talaies - participen" }, "geometry": { "type": "Point", "coordinates": [ 3.475207, 39.7170301 ] } },
{ "type": "Feature", "properties": { "fid": 44, "Nom": "Torre del Serral dels Falcons", "Estat": "deteriorat", "Data_edicio": "2025-12-08T12:06:27.850Z", "Tipus": "torre o talaia", "Imatge": "https://manacormanacor.com/upload/img/periodico/img_27595.jpg", "Adreca": "Mallorca", "Descripcio": "La torre, construïda el 1577 i acabada l’any següent, fou objecte de diverses reparacions als segles XVI i XVII, i passà de servir només al sistema de senyals de la costa de Llevant a incorporar artilleria, renovada el 1733. Durant la Guerra de Successió, l’explosió d’una peça matà el torrer. Al segle XIX la torre perdé importància i fou traspassada el 1867. El 1936 resultà greument malmesa durant el desembarcament del capità Bayo, però el 1960 els propietaris la restauraren i li donaren l’aspecte actual.", "participacio": true, "link": "https://ca.wikipedia.org/wiki/Torre_del_Serral_dels_Falcons", "visibilitat": true, "id_talaia": 44, "simbologia": "talaies - participen" }, "geometry": { "type": "Point", "coordinates": [ 3.3371072, 39.5333018 ] } },
{ "type": "Feature", "properties": { "fid": 45, "Nom": "Castell d'Alaró", "Estat": "molt deteriorat", "Data_edicio": "2025-12-08T12:06:27.850Z", "Tipus": "fortalesa", "Imatge": "https://www.foravila.net/wp-content/uploads/2021/05/008-Torre-del-Homenatge-scaled.jpg", "Adreca": "Mallorca", "Descripcio": null, "participacio": true, "link": "https://ca.wikipedia.org/wiki/Castell_d%27Alar%C3%B3", "visibilitat": true, "id_talaia": 45, "simbologia": "talaies - participen" }, "geometry": { "type": "Point", "coordinates": [ 2.7914644, 39.7338085 ] } },
{ "type": "Feature", "properties": { "fid": 46, "Nom": "Torre de Son Bou", "Estat": "desaparegut", "Data_edicio": "2025-12-08T12:05:35.227Z", "Tipus": "torre o talaia", "Imatge": null, "Adreca": "Menorca", "Descripcio": "Va ser construïda el 1805 pels espanyols, un cop recuperada l'illa del domini britànic. Va ser enderrocada 3 anys més tard, el 2 d'abril de 1808, quan va ser atacada per un destacament que va desembarcar de la fragata britànica HMS Imperiouse, sota el comandament de Lord Cochrane, en la guerra amb Napoleó. Les seves restes possiblement van ser utilitzades duran la Guerra Civil espanyola per a construir un búnker al mateix lloc", "participacio": false, "link": "https://ca.wikipedia.org/wiki/Torre_de_Son_Bou", "visibilitat": false, "id_talaia": 46, "simbologia": "talaies - no participen" }, "geometry": { "type": "Point", "coordinates": [ 4.0528818, 39.9069036 ] } },
{ "type": "Feature", "properties": { "fid": 47, "Nom": "Torre de Fornells", "Estat": "bo", "Data_edicio": "2025-12-08T12:18:09.099Z", "Tipus": "torre o talaia", "Imatge": null, "Adreca": "Menorca", "Descripcio": null, "participacio": false, "link": null, "visibilitat": false, "id_talaia": 47, "simbologia": "talaies - no participen" }, "geometry": { "type": "Point", "coordinates": [ 4.1305316, 40.0613684 ] } },
{ "type": "Feature", "properties": { "fid": 48, "Nom": "Torre Illa de ses Sargantanes", "Estat": null, "Data_edicio": "2025-12-08T12:05:35.234Z", "Tipus": "torre o talaia", "Imatge": null, "Adreca": "Menorca", "Descripcio": null, "participacio": false, "link": null, "visibilitat": false, "id_talaia": 48, "simbologia": "talaies - no participen" }, "geometry": { "type": "Point", "coordinates": [ 4.1363888, 40.0475253 ] } },
{ "type": "Feature", "properties": { "fid": 49, "Nom": "Torre de la Rambla", "Estat": "molt bo", "Data_edicio": "2025-12-08T12:05:35.234Z", "Tipus": "torre o talaia", "Imatge": null, "Adreca": "Menorca", "Descripcio": null, "participacio": false, "link": null, "visibilitat": false, "id_talaia": 49, "simbologia": "talaies - no participen" }, "geometry": { "type": "Point", "coordinates": [ 4.265262304703097, 39.962867959318501 ] } },
{ "type": "Feature", "properties": { "fid": 50, "Nom": "Puig de Missa", "Estat": "molt bo", "Data_edicio": "2025-12-08T12:05:35.234Z", "Tipus": "torre o talaia", "Imatge": null, "Adreca": "Eïvissa", "Descripcio": null, "participacio": false, "link": null, "visibilitat": false, "id_talaia": 50, "simbologia": "talaies - no participen" }, "geometry": { "type": "Point", "coordinates": [ 1.529189671198246, 38.983876105700062 ] } },
{ "type": "Feature", "properties": { "fid": 51, "Nom": "Torre d'es Molar", "Estat": "bo", "Data_edicio": "2025-12-08T12:05:35.239Z", "Tipus": "torre o talaia", "Imatge": null, "Adreca": "Eïvissa", "Descripcio": null, "participacio": false, "link": null, "visibilitat": false, "id_talaia": 51, "simbologia": "talaies - no participen" }, "geometry": { "type": "Point", "coordinates": [ 1.434190942297136, 39.086858336125559 ] } },
{ "type": "Feature", "properties": { "fid": 52, "Nom": "Castell de Santueri", "Estat": "deteriorat", "Data_edicio": "2025-12-08T12:06:27.852Z", "Tipus": "fortalesa", "Imatge": "https://www.santueri.org/.cm4all/uproc.php/0/Santueri%20castle%20-1.jpg", "Adreca": "Mallorca", "Descripcio": null, "participacio": true, "link": "https://ca.wikipedia.org/wiki/Castell_de_Santueri", "visibilitat": true, "id_talaia": 52, "simbologia": "talaies - participen" }, "geometry": { "type": "Point", "coordinates": [ 3.187845373522436, 39.431935599248078 ] } },
{ "type": "Feature", "properties": { "fid": 53, "Nom": "Torre nova des Cap Vermell", "Estat": null, "Data_edicio": "2025-12-08T12:06:27.852Z", "Tipus": "torre o talaia", "Imatge": "https://lh3.googleusercontent.com/gps-cs-s/AG0ilSzVAXgXvWsQIKCDaiek4NkelYqGM9UD6_1AONMx8ykCLFTSwEx75lG2nVsdpnQKKWToBmUGTX4PEjmxP2fsg82Q-1YlMVFxMcO0h3amNr46Qel2Fv4SiMjsI-rx6h4yTr0a_Dod7Q=s1360-w1360-h1020-rw", "Adreca": "Mallorca", "Descripcio": null, "participacio": true, "link": null, "visibilitat": true, "id_talaia": 53, "simbologia": "talaies - participen" }, "geometry": { "type": "Point", "coordinates": [ 3.448570250538682, 39.661954692560187 ] } },
{ "type": "Feature", "properties": { "fid": 54, "Nom": "Torre d'Albarca o d'es Matzoc", "Estat": null, "Data_edicio": "2025-12-08T12:06:27.854Z", "Tipus": "torre o talaia", "Imatge": "https://upload.wikimedia.org/wikipedia/commons/thumb/0/07/Torre_des_Matzoc_04.jpg/1280px-Torre_des_Matzoc_04.jpg", "Adreca": "Mallorca", "Descripcio": null, "participacio": true, "link": "https://de.wikipedia.org/wiki/Torre_des_Matzoc", "visibilitat": true, "id_talaia": 54, "simbologia": "talaies - participen" }, "geometry": { "type": "Point", "coordinates": [ 3.403656778907417, 39.763242453612236 ] } },
{ "type": "Feature", "properties": { "fid": 55, "Nom": "Torre de Son Durí", "Estat": "bo", "Data_edicio": "2025-12-08T12:06:27.854Z", "Tipus": "torre o talaia", "Imatge": "https://upload.wikimedia.org/wikipedia/commons/thumb/a/a6/Torre_de_Son_Dur%C3%AD.jpg/960px-Torre_de_Son_Dur%C3%AD.jpg", "Adreca": "Mallorca", "Descripcio": "Construïda el 1595", "participacio": true, "link": "https://ca.wikipedia.org/wiki/Torre_de_Son_Dur%C3%AD", "visibilitat": true, "id_talaia": 55, "simbologia": "talaies - participen" }, "geometry": { "type": "Point", "coordinates": [ 2.953357134936006, 39.362556398125733 ] } },
{ "type": "Feature", "properties": { "fid": 56, "Nom": "Torre de Sant Nicolau", "Estat": "molt bo", "Data_edicio": "2025-12-08T12:05:35.239Z", "Tipus": "torre (port)", "Imatge": "https://menorcatrip.com/wp-content/uploads/2022/01/castillosantnicolau-730x487.jpg", "Adreca": "Menorca", "Descripcio": null, "participacio": false, "link": null, "visibilitat": false, "id_talaia": 56, "simbologia": "talaies - no participen" }, "geometry": { "type": "Point", "coordinates": [ 3.825809251961368, 39.995677466377884 ] } },
{ "type": "Feature", "properties": { "fid": 58, "Nom": "Torre de Menut", "Estat": "bo", "Data_edicio": "2025-12-08T12:06:27.854Z", "Tipus": "possessió", "Imatge": "https://www.castillosnet.org//datos/baleares/escorca/lluc/torre_menut//PM-CAS-041-1416001.jpg", "Adreca": "Mallorca", "Descripcio": null, "participacio": true, "link": "https://www.castillosnet.org//monumento.php?r=PM-CAS-041&seo=", "visibilitat": true, "id_talaia": 58, "simbologia": "talaies - participen" }, "geometry": { "type": "Point", "coordinates": [ 2.899846632686426, 39.830535940679248 ] } },
{ "type": "Feature", "properties": { "fid": 59, "Nom": "Torre de Portocolom", "Estat": "desaparegut", "Data_edicio": "2025-12-08T12:06:27.854Z", "Tipus": "torre o talaia", "Imatge": "https://uh.gsstatic.es/sfAttachPlugin/getCachedContent/id/137762/width/730/height/500/crop/1", "Adreca": "Mallorca", "Descripcio": "La documentació indica que la vigilància de Cala Llonga, Portopetro i Portocolom es feia inicialment des del llunyà Castell de Santueri, fins que el 1570 es decidí construir una torre a la punta d’en Bordoi, acabada l’any següent. Com que era massa baixa, el 1577 se n’ordenà l’alçament i el 1618 s’hi instal·là una bombarda. El 1860, arran de la visita d’Isabel II, s’hi augmentà temporalment el nombre de torrers, però el sistema ja era obsolet; el 1867 la torre passà a Hisenda i finalment fou enderrocada el 1919.", "participacio": true, "link": "https://ca.wikipedia.org/wiki/Torre_de_Portocolom", "visibilitat": true, "id_talaia": 59, "simbologia": "talaies - participen" }, "geometry": { "type": "Point", "coordinates": [ 3.272243377833344, 39.415308089735923 ] } },
{ "type": "Feature", "properties": { "fid": 60, "Nom": "Es Fortí de Cala Llonga", "Estat": "bo", "Data_edicio": "2025-12-08T12:06:27.854Z", "Tipus": "fortalesa", "Imatge": "https://www.google.com/maps/place/Es+Fort%C3%AD/@39.3667934,3.2339008,3a,75y,90t/data=!3m8!1e2!3m6!1sCIHM0ogKEICAgICj0PyuCQ!2e10!3e12!6shttps:%2F%2Flh3.googleusercontent.com%2Fgps-cs-s%2FAG0ilSzHtvEFDNRZbjTqu8WHZeSkdNrFFTwp6g06Qfog8kSOJ7boMywC4AvjqyO2ad7w5OFiliFGie5DpaNF9bFr9FaRTvDqbgJqNG0uyWtgwpnFy6Vj1KNwZ3IyAz9KwzFBxwlq3yA%3Dw203-h152-k-no!7i4000!8i3000!4m7!3m6!1s0x129650c8d9c4f48d:0x863261801de77782!8m2!3d39.3667934!4d3.2339008!10e5!16s%2Fg%2F11ddzqdlfy?entry=ttu&g_ep=EgoyMDI1MTIwMi4wIKXMDSoASAFQAw%3D%3D#", "Adreca": "Mallorca", "Descripcio": "Es Fortí és una fortificació militar que allotjava la tropa que custodiava la zona marítima del sud-est de Mallorca. Des que es construís, el 1730, aquesta fortificació ha passat per moltes fases. Situat a Cala Llonga, constituïa un punt estratègic. Actualment roman obert a el públic.", "participacio": true, "link": "https://visitcalafiguera.com/es-forti/", "visibilitat": true, "id_talaia": 60, "simbologia": "talaies - participen" }, "geometry": { "type": "Point", "coordinates": [ 3.233891468219178, 39.366766252823226 ] } },
{ "type": "Feature", "properties": { "fid": 61, "Nom": "Torre de na Gosta", "Estat": "desaparegut", "Data_edicio": "2025-12-08T12:06:27.860Z", "Tipus": "torre o talaia", "Imatge": "https://mymaps.usercontent.google.com/hostedimage/m/*/6ALCsBoo77OImagrw_eFDL1EkTKJL1SnVsQzw-yTQXVuVeJWRLqj8Nt-R7j-QOjo97oo8GxCsBj60m5NDvABhtXmgrKK3rdCnchz_FDLTQXuZEI2zndIoaVhfQgj_j3Ik0VGRYuQsFLM6AW9XdCUImKTnhnOhC_swNCc9DtmLBRyr-Nlzf7NBTU6w6M4Wd6rQt4knZn53WXp6Ge9Utqi9k5BJTJK6szc?fife=s16383", "Adreca": "Mallorca", "Descripcio": null, "participacio": true, "link": "https://cronicodemallorca.cat/02122-2/", "visibilitat": true, "id_talaia": 61, "simbologia": "talaies - participen" }, "geometry": { "type": "Point", "coordinates": [ 3.055507106292569, 39.265198690608464 ] } },
{ "type": "Feature", "properties": { "fid": 62, "Nom": "Torre de sa Colònia", "Estat": "desaparegut", "Data_edicio": "2025-12-08T12:06:27.862Z", "Tipus": "torre o talaia", "Imatge": "https://content-viajes.nationalgeographic.com.es/medio/2023/07/26/faro-colonia-sant-jordi_33a81dcb_230726180945_1280x850.jpg", "Adreca": "Mallorca", "Descripcio": "", "participacio": true, "link": null, "visibilitat": true, "id_talaia": 62, "simbologia": "talaies - participen" }, "geometry": { "type": "Point", "coordinates": [ 2.993532269609315, 39.312392939136778 ] } },
{ "type": "Feature", "properties": { "fid": 63, "Nom": "S'Almudaina", "Estat": "bo", "Data_edicio": "2025-12-08T12:06:27.862Z", "Tipus": "fortalesa", "Imatge": "https://visitpalma.com/wp-content/uploads/2025/05/Palacio-Almudaina.jpg", "Adreca": "Mallorca", "Descripcio": null, "participacio": true, "link": "https://ca.wikipedia.org/wiki/Palau_Reial_de_l%27Almudaina", "visibilitat": true, "id_talaia": 63, "simbologia": "talaies - participen" }, "geometry": { "type": "Point", "coordinates": [ 2.64688682100227, 39.567716535669575 ] } },
{ "type": "Feature", "properties": { "fid": 64, "Nom": "Torre d'es Morro o de Portals Vells", "Estat": "deteriorat", "Data_edicio": "2025-12-08T12:06:27.864Z", "Tipus": "torre o talaia", "Imatge": "https://mymaps.usercontent.google.com/hostedimage/m/*/6ALCsBoq4jg5upheOnbImjpbGKlFl5FPloezYgMqZ0QsNmdB7FyJf7l1NI1SX4wdduTftdak7M58gNGFanvdYSN4Zjm6aclBwbTI5rLRSELgt9dl4oOb18l5l5QS_iMTdO5_1HVWTbig07WqlJVsJfbsMzsJ0-4yWHZr4RI4GZBB76kH7vZp4paJvqmzvQWZCHhCST6Lp27jYq__5QFlXD5JnZY1xaLo?fife=s16383", "Adreca": "Mallorca", "Descripcio": null, "participacio": true, "link": null, "visibilitat": true, "id_talaia": 64, "simbologia": "talaies - participen" }, "geometry": { "type": "Point", "coordinates": [ 2.525252477811036, 39.474455280793315 ] } },
{ "type": "Feature", "properties": { "fid": 66, "Nom": "Torre de sa Punta Prima", "Estat": "bo", "Data_edicio": "2025-12-08T12:05:35.239Z", "Tipus": "torre o talaia", "Imatge": null, "Adreca": "Formentera", "Descripcio": null, "participacio": false, "link": null, "visibilitat": false, "id_talaia": 66, "simbologia": "talaies - no participen" }, "geometry": { "type": "Point", "coordinates": [ 1.47051972603731, 38.722893822045364 ] } },
{ "type": "Feature", "properties": { "fid": 67, "Nom": "Torre de la Guardiola", "Estat": "bo", "Data_edicio": "2025-12-08T12:05:35.239Z", "Tipus": "torre o talaia", "Imatge": null, "Adreca": "Formentera", "Descripcio": null, "participacio": false, "link": null, "visibilitat": false, "id_talaia": 67, "simbologia": "talaies - no participen" }, "geometry": { "type": "Point", "coordinates": [ 1.417957108387795, 38.784859138586192 ] } },
{ "type": "Feature", "properties": { "fid": 68, "Nom": "Torre des Pi des Català", "Estat": "bo", "Data_edicio": "2025-12-08T12:05:35.239Z", "Tipus": "torre o talaia", "Imatge": null, "Adreca": "Formentera", "Descripcio": null, "participacio": false, "link": null, "visibilitat": false, "id_talaia": 68, "simbologia": "talaies - no participen" }, "geometry": { "type": "Point", "coordinates": [ 1.451455967219047, 38.687153397217756 ] } },
{ "type": "Feature", "properties": { "fid": 69, "Nom": "Torre de sa Gavina", "Estat": "bo", "Data_edicio": "2025-12-08T12:05:35.239Z", "Tipus": "torre o talaia", "Imatge": null, "Adreca": "Formentera", "Descripcio": null, "participacio": false, "link": null, "visibilitat": false, "id_talaia": 69, "simbologia": "talaies - no participen" }, "geometry": { "type": "Point", "coordinates": [ 1.382165504807129, 38.717592928767189 ] } },
{ "type": "Feature", "properties": { "fid": 70, "Nom": "Torre de Portinatx", "Estat": "bo", "Data_edicio": "2025-12-08T12:05:35.239Z", "Tipus": "torre o talaia", "Imatge": null, "Adreca": "Eïvissa", "Descripcio": null, "participacio": false, "link": null, "visibilitat": false, "id_talaia": 70, "simbologia": "talaies - no participen" }, "geometry": { "type": "Point", "coordinates": [ 1.508451337655018, 39.111932534701843 ] } },
{ "type": "Feature", "properties": { "fid": 71, "Nom": "Torre de Campanitx", "Estat": "bo", "Data_edicio": "2025-12-08T12:05:35.239Z", "Tipus": "torre o talaia", "Imatge": null, "Adreca": "Eïvissa", "Descripcio": null, "participacio": false, "link": null, "visibilitat": false, "id_talaia": 71, "simbologia": "talaies - no participen" }, "geometry": { "type": "Point", "coordinates": [ 1.619185984823572, 39.034646453116196 ] } },
{ "type": "Feature", "properties": { "fid": 72, "Nom": "Torre d'en Rovira", "Estat": "bo", "Data_edicio": "2025-12-08T12:05:35.239Z", "Tipus": "torre o talaia", "Imatge": null, "Adreca": "Eïvissa", "Descripcio": null, "participacio": false, "link": null, "visibilitat": false, "id_talaia": 72, "simbologia": "talaies - no participen" }, "geometry": { "type": "Point", "coordinates": [ 1.230440148745651, 38.972761882231268 ] } },
{ "type": "Feature", "properties": { "fid": 73, "Nom": "Torres d'en Lluc", "Estat": "desaparegut", "Data_edicio": "2025-12-08T12:05:35.239Z", "Tipus": "torre o talaia", "Imatge": null, "Adreca": "Eïvissa", "Descripcio": "https://ca.wikipedia.org/wiki/Torres_d%27en_Lluc", "participacio": false, "link": null, "visibilitat": false, "id_talaia": 73, "simbologia": "talaies - no participen" }, "geometry": { "type": "Point", "coordinates": [ 1.357729602037016, 39.065820570079929 ] } },
{ "type": "Feature", "properties": { "fid": 74, "Nom": "Torre des Carregador", "Estat": "bo", "Data_edicio": "2025-12-08T12:05:35.239Z", "Tipus": "torre o talaia", "Imatge": null, "Adreca": "Eïvissa", "Descripcio": null, "participacio": false, "link": null, "visibilitat": false, "id_talaia": 74, "simbologia": "talaies - no participen" }, "geometry": { "type": "Point", "coordinates": [ 1.404043100631546, 38.873232211013338 ] } },
{ "type": "Feature", "properties": { "fid": 75, "Nom": "Campanar de Dalt Vila", "Estat": "molt bo", "Data_edicio": "2025-12-08T12:05:35.253Z", "Tipus": "fortalesa", "Imatge": null, "Adreca": "Eïvissa", "Descripcio": null, "participacio": false, "link": null, "visibilitat": false, "id_talaia": 75, "simbologia": "talaies - no participen" }, "geometry": { "type": "Point", "coordinates": [ 1.436599238798776, 38.906487907057446 ] } },
{ "type": "Feature", "properties": { "fid": 86, "Nom": "Torre d'es Cap des Romaní", "Estat": "desaparegut", "Data_edicio": "2025-12-08T12:05:35.255Z", "Tipus": "torre o talaia", "Imatge": "https://sangreyhierro.wordpress.com/wp-content/uploads/2012/11/la-torre-de-sant-albert-dibuix-dignasi-galiana-mill.jpg", "Adreca": "Mallorca", "Descripcio": "La Torre d’en Pau és una de les fortificacions històriques de la badia de Palma, amb orígens que es remunten al segle XVI i formant part de la xarxa de torres de vigilància de la costa mallorquina. La torre original, probablement del segle XIV, fou substituïda el 1667 per una nova construcció impulsada per l’administració reial i edificada per Miquel Roig, que també en tingué cura del manteniment. Situada inicialment al Cap Romaní o Punta de Sa Torre, comptava amb fossat, pont llevadís i diverses bateries de canons que la convertien en un punt estratègic de defensa. A finals del segle XIX es decidí substituir la vella estructura deteriorada per un fortín modern situat en una cota més elevada.", "participacio": false, "link": "https://sangreyhierro.wordpress.com/2012/11/25/el-fortin-de-torre-den-pau/", "visibilitat": true, "id_talaia": 86, "simbologia": "talaies - no participen" }, "geometry": { "type": "Point", "coordinates": [ 2.690803977026288, 39.548151135975843 ] } },
{ "type": "Feature", "properties": { "fid": 87, "Nom": "Torre de Sant Vicenç", "Estat": "desaparegut", "Data_edicio": "2025-12-08T12:06:27.878Z", "Tipus": "torre (port)", "Imatge": "https://lh3.googleusercontent.com/umsh/AN6v0v6RMoN-MEcbHQmrnucvlYNR0A9iRsvFMvxL2nuQR4l0BQfVM9RecoANI3uK3glir-7svbbval6WGFSd_-UiF4HjCGtXbYTW8v6C0Di0ZPtuGDOcpiv_Cm3CV56DcavHhAdEiKs=s16383", "Adreca": "Mallorca", "Descripcio": null, "participacio": true, "link": null, "visibilitat": true, "id_talaia": 87, "simbologia": "talaies - participen" }, "geometry": { "type": "Point", "coordinates": [ 3.057577245716943, 39.921325082734867 ] } },
{ "type": "Feature", "properties": { "fid": 88, "Nom": "La Fortalesa", "Estat": "molt bo", "Data_edicio": "2025-12-08T12:05:35.255Z", "Tipus": "fortalesa", "Imatge": "https://estaticos-cdn.prensaiberica.es/clip/b3902806-7195-4610-b8ea-f5dad5508600_16-9-aspect-ratio_default_0.jpg", "Adreca": "Mallorca", "Descripcio": null, "participacio": false, "link": null, "visibilitat": true, "id_talaia": 88, "simbologia": "talaies - no participen" }, "geometry": { "type": "Point", "coordinates": [ 3.11017924805396, 39.903813342626101 ] } },
{ "type": "Feature", "properties": { "fid": 89, "Nom": "Talaia Roja", "Estat": "deteriorat", "Data_edicio": "2025-12-08T12:05:35.257Z", "Tipus": "torre (port)", "Imatge": "https://s0.wklcdn.com/image_153/4601924/66671121/44006784Master.jpg", "Adreca": "Mallorca", "Descripcio": null, "participacio": false, "link": null, "visibilitat": true, "id_talaia": 89, "simbologia": "talaies - no participen" }, "geometry": { "type": "Point", "coordinates": [ 3.182680768520429, 39.879756664669991 ] } },
{ "type": "Feature", "properties": { "fid": 90, "Nom": "Torre d'es Port de Sóller", "Estat": "molt bo", "Data_edicio": "2025-12-08T12:05:35.257Z", "Tipus": "torre (port)", "Imatge": "https://mymaps.usercontent.google.com/hostedimage/m/*/6ALCsBoo1YpQrRZFs5d9xuZqmYwPcb9UG4dRuZxG6lzClXdAjI5oEBTsPs51bREfWCZdOpUnCG1yQfjpXQFKlg62-FOdoS9svmT2o8EUtLb2u3kvSUWfYDiGu97Ke819Pz8oJXQsIWOwC_UbiQX82hO8mCkd1ScosXj93PaOkY87hOg--CkP4FTHoO2QhNLERrQ1Fbp3XqVnVubA2i7wMGGPL1RfK5PI?fife=s16383", "Adreca": "Mallorca", "Descripcio": null, "participacio": false, "link": null, "visibilitat": true, "id_talaia": 90, "simbologia": "talaies - no participen" }, "geometry": { "type": "Point", "coordinates": [ 2.69519981849761, 39.791100939126238 ] } },
{ "type": "Feature", "properties": { "fid": 91, "Nom": "Torre d'es Port Nou", "Estat": "molt bo", "Data_edicio": "2025-12-08T12:05:35.257Z", "Tipus": "torre o talaia", "Imatge": null, "Adreca": "Mallorca", "Descripcio": "La torre, clarament defensiva, pertany a una tipologia que es repeteix quatre vegades a Mallorca i presenta un disseny més refinat que les atalaies de senyals, resultat d’un pla constructiu unificat impulsat pel regne sota els Borbons. Segons Ribas de Pina, fou construïda el 1751 i el 1769 ja apareix com a Torre Nova de Son Servera, equipada amb tres canons (dos de 12 i un de 6), tres torrers i edificacions auxiliars per a cavalls, situada en terres de Bartomeu Viudó. El 1794 la torre mantenia tres canons, i cap al 1825 l’armament es reduïa a un canó de 12 i un de 6 de ferro.", "participacio": false, "link": "https://www.xn--castillosdeespaa-lub.es/es/content/port-nou-torre-des", "visibilitat": true, "id_talaia": 91, "simbologia": "talaies - no participen" }, "geometry": { "type": "Point", "coordinates": [ 3.396090399214459, 39.625890370617384 ] } },
{ "type": "Feature", "properties": { "fid": 92, "Nom": "Torre de Porto Petro", "Estat": "molt bo", "Data_edicio": "2025-12-08T12:05:35.257Z", "Tipus": "torre (port)", "Imatge": "https://lh3.googleusercontent.com/gps-cs-s/AG0ilSz4auqtgQd7vuaTuj8V-9Z22U-f0Jk_LkVg7dde8da6-zQoUnvOFmqyDGocfCJnvPDQXGOdd8snPyLNJMtSNkQ-ZwUuO8-6i4lD0HVBmE7u8XdnSIeWerI0zUFiN4dEX8R9PqLA=s1360-w1360-h1020-rw", "Adreca": "Mallorca", "Descripcio": "Torre, fortelasa o castell construït entre els anys 1627 i 1628 sobre\nuna torre més antiga, edificada segurament pels musulmans devers el segle XIII i que en el XVI ja estava en runes. És de planta rectangular de 10 m per 9,05 m i 13'25 m d'alçada. L'edifici tenia dues plantes, devuit\nespitlleres, dos matacans i quatre troneres per a quatre canons. Transmetia els focs de la torre d'en Beu de\nCala Figuera a la torre de Portocolom", "participacio": false, "link": "https://www.xn--castillosdeespaa-lub.es/es/content/porto-petro-fortalesa-de", "visibilitat": true, "id_talaia": 92, "simbologia": "talaies - no participen" }, "geometry": { "type": "Point", "coordinates": [ 3.214325865110715, 39.356051021271306 ] } },
{ "type": "Feature", "properties": { "fid": 93, "Nom": "Castellot de Santa Ponça", "Estat": "molt bo", "Data_edicio": "2025-12-08T12:05:35.257Z", "Tipus": "torre o talaia", "Imatge": "https://mymaps.usercontent.google.com/hostedimage/m/*/6ALCsBoo5hCRJK9oTI80mgf5vUrRhnhFQC0APuPuX7HX80yN5nj5NdqirZxeX5msJEoeJgQCJeCqkEZswKy64WtzzhDUwlDNtW8E6FXgt5rgodkeSW9J9bYwWrb1cAWZCHeCA7iITmZ4KcxwMO8-8Z2zPk1wiWc5b87nyWaVW2uxi9CJX_slrvgyEWUrwyHwtuhBnsV5S69_86YMwy-Wptht1jt6G4g?fife=s16383", "Adreca": "Mallorca", "Descripcio": "Any de construcció: 1302. Va ser reforçada l'any 1588. Es creu que hi devia haver una torre de més antic a la mateixa ubicació. La torre que hi ha avui en dia data del segle XVIII.", "participacio": false, "link": "https://www.castillosnet.org//monumento.php?r=PM-CAS-046&seo=castellot-de-santa-pon%C3%A7a", "visibilitat": true, "id_talaia": 93, "simbologia": "talaies - no participen" }, "geometry": { "type": "Point", "coordinates": [ 2.467883477031713, 39.519920584981499 ] } },
{ "type": "Feature", "properties": { "fid": 95, "Nom": "Torre de Llebeig", "Estat": "bo", "Data_edicio": "2025-12-08T12:05:35.257Z", "Tipus": "torre (port)", "Imatge": "https://volare.volotea.com/wp-content/uploads/2025/09/shutterstock_2269967011.jpg", "Adreca": "Mallorca", "Descripcio": null, "participacio": false, "link": "https://ca.wikipedia.org/wiki/Torre_de_Llebeig", "visibilitat": true, "id_talaia": 95, "simbologia": "talaies - no participen" }, "geometry": { "type": "Point", "coordinates": [ 2.306938786648758, 39.573254590657484 ] } },
{ "type": "Feature", "properties": { "fid": 96, "Nom": "Torre de Sant Felipet", "Estat": "bo", "Data_edicio": "2025-12-08T12:05:35.257Z", "Tipus": "torre (port)", "Imatge": "http://www.menorca.es/documents/Imatges/2610imgpub.jpg", "Adreca": "Menorca", "Descripcio": null, "participacio": false, "link": null, "visibilitat": false, "id_talaia": 96, "simbologia": "talaies - no participen" }, "geometry": { "type": "Point", "coordinates": [ 4.306500308661206, 39.87235770503267 ] } },
{ "type": "Feature", "properties": { "fid": 98, "Nom": "Torre d'es Castellar", "Estat": "molt bo", "Data_edicio": "2025-12-08T12:05:35.257Z", "Tipus": "torre (port)", "Imatge": "http://www.menorca.es/documents/Imatges/2101imgpub.JPG", "Adreca": "Menorca", "Descripcio": null, "participacio": false, "link": null, "visibilitat": false, "id_talaia": 98, "simbologia": "talaies - no participen" }, "geometry": { "type": "Point", "coordinates": [ 3.831843943511138, 39.980378863141745 ] } },
{ "type": "Feature", "properties": { "fid": 99, "Nom": "Torre del Ram", "Estat": "bo", "Data_edicio": "2025-12-08T12:05:35.257Z", "Tipus": "fortalesa", "Imatge": "https://patrimoniomm.wordpress.com/wp-content/uploads/2014/09/p1310388torredelram.jpg", "Adreca": "Menorca", "Descripcio": null, "participacio": false, "link": null, "visibilitat": false, "id_talaia": 99, "simbologia": "talaies - no participen" }, "geometry": { "type": "Point", "coordinates": [ 3.809069521295723, 40.012115565383361 ] } },
{ "type": "Feature", "properties": { "fid": 100, "Nom": "Torre d'Alcalfar", "Estat": "bo", "Data_edicio": "2025-12-08T12:05:35.257Z", "Tipus": "torre o talaia", "Imatge": "https://upload.wikimedia.org/wikipedia/commons/thumb/1/1f/Torre_d%27Alcalfar_Vell_%28Sant_Llu%C3%ADs%29_-_2.jpg/500px-Torre_d%27Alcalfar_Vell_%28Sant_Llu%C3%ADs%29_-_2.jpg", "Adreca": "Menorca", "Descripcio": null, "participacio": false, "link": "https://ca.wikipedia.org/wiki/Torre_d%E2%80%99Alcalfar", "visibilitat": false, "id_talaia": 100, "simbologia": "talaies - no participen" }, "geometry": { "type": "Point", "coordinates": [ 4.296078297757322, 39.82515690148584 ] } },
{ "type": "Feature", "properties": { "fid": 101, "Nom": "Torre de la Princesa", "Estat": "bo", "Data_edicio": "2025-12-08T12:05:35.257Z", "Tipus": "fortalesa", "Imatge": "http://www.menorca.es/documents/Imatges/2617imgpub.jpg", "Adreca": null, "Descripcio": null, "participacio": false, "link": null, "visibilitat": false, "id_talaia": null, "simbologia": "talaies - no participen" }, "geometry": { "type": "Point", "coordinates": [ 4.3158946, 39.878258099999989 ] } },
{ "type": "Feature", "properties": { "fid": 102, "Nom": "Torre de Cala Teulera", "Estat": "bo", "Data_edicio": "2025-12-08T12:05:35.271Z", "Tipus": "torre o talaia", "Imatge": null, "Adreca": null, "Descripcio": null, "participacio": false, "link": null, "visibilitat": false, "id_talaia": null, "simbologia": "talaies - no participen" }, "geometry": { "type": "Point", "coordinates": [ 4.308094902172311, 39.876462569050759 ] } },
{ "type": "Feature", "properties": { "fid": 103, "Nom": "Torre d'en Penjat", "Estat": "deteriorat", "Data_edicio": "2025-12-08T12:05:35.271Z", "Tipus": "torre o talaia", "Imatge": "https://www.consorciomilitarmenorca.com/wp-content/uploads/2020/10/Torre_den_penjat_menorca_LR-6.jpg", "Adreca": null, "Descripcio": null, "participacio": false, "link": null, "visibilitat": false, "id_talaia": null, "simbologia": "talaies - no participen" }, "geometry": { "type": "Point", "coordinates": [ 4.3039036, 39.8593846 ] } },
{ "type": "Feature", "properties": { "fid": 104, "Nom": "Torre de Sa Mesquida", "Estat": "molt bo", "Data_edicio": "2025-12-08T12:05:35.271Z", "Tipus": "torre o talaia", "Imatge": null, "Adreca": null, "Descripcio": null, "participacio": false, "link": null, "visibilitat": false, "id_talaia": null, "simbologia": "talaies - no participen" }, "geometry": { "type": "Point", "coordinates": [ 4.2864464, 39.9138633 ] } },
{ "type": "Feature", "properties": { "fid": 105, "Nom": "Torre d'Addaia", "Estat": "molt bo", "Data_edicio": "2025-12-08T12:05:35.271Z", "Tipus": "torre o talaia", "Imatge": null, "Adreca": null, "Descripcio": null, "participacio": false, "link": null, "visibilitat": false, "id_talaia": null, "simbologia": "talaies - no participen" }, "geometry": { "type": "Point", "coordinates": [ 4.2010118, 40.0120001 ] } },
{ "type": "Feature", "properties": { "fid": 106, "Nom": "Torre de Sa Nitja", "Estat": "molt bo", "Data_edicio": "2025-12-08T12:05:35.271Z", "Tipus": "torre o talaia", "Imatge": null, "Adreca": null, "Descripcio": null, "participacio": false, "link": null, "visibilitat": false, "id_talaia": null, "simbologia": "talaies - no participen" }, "geometry": { "type": "Point", "coordinates": [ 4.0839554, 40.0734936 ] } },
{ "type": "Feature", "properties": { "fid": 107, "Nom": "Talaia d'en Bajolí", "Estat": "bo", "Data_edicio": "2025-12-08T12:05:35.271Z", "Tipus": "torre o talaia", "Imatge": "https://blogger.googleusercontent.com/img/b/R29vZ2xl/AVvXsEhiwYN-i32M1FVqMIE9_JSyAa_sjLX2x7BLx1L5fSlwjc0daJLnKuxbV_jLsZ3IkkatYvMHGZMmTFjA4QjJYOzywDLk9BEeHv_oTeef43fjg0DmAnFaify6dQgvzcN0Hd9OGGrUBH7QmVk/s640/23737667_1709510055767578_6178119837002172796_o.jpg", "Adreca": null, "Descripcio": null, "participacio": false, "link": null, "visibilitat": false, "id_talaia": null, "simbologia": "talaies - no participen" }, "geometry": { "type": "Point", "coordinates": [ 3.8027319, 40.0139137 ] } },
{ "type": "Feature", "properties": { "fid": 108, "Nom": "Talaia d'Artrutx", "Estat": "bo", "Data_edicio": "2025-12-08T12:05:35.271Z", "Tipus": "torre o talaia", "Imatge": null, "Adreca": null, "Descripcio": null, "participacio": false, "link": null, "visibilitat": false, "id_talaia": null, "simbologia": "talaies - no participen" }, "geometry": { "type": "Point", "coordinates": [ 3.909850367284631, 39.92973241476119 ] } },
{ "type": "Feature", "properties": { "fid": 109, "Nom": "Torre de Son Ganxo", "Estat": "bo", "Data_edicio": "2025-12-08T12:05:35.271Z", "Tipus": "torre o talaia", "Imatge": "https://lh3.googleusercontent.com/gps-cs-s/AG0ilSxjyo8QOri3pON7OSZuY0X3emXB2w8OlO4iovi0TavH0W56jnUyztrQgTsKqfplvSGFGRgVQapFQRCfQZVXjfGbV6zAJ5KniMFoJS9OyZEEXKMik3_94nATVS9CKHbaag_zrAQ=s1360-w1360-h1020-rw", "Adreca": null, "Descripcio": null, "participacio": false, "link": null, "visibilitat": false, "id_talaia": null, "simbologia": "talaies - no participen" }, "geometry": { "type": "Point", "coordinates": [ 4.2757093, 39.8110622 ] } },
{ "type": "Feature", "properties": { "fid": 139, "Nom": "Castell de Capdepera", "Estat": "bo", "Data_edicio": "2025-12-08T12:32:09.921Z", "Tipus": "fortalesa", "Imatge": "https://lh3.googleusercontent.com/gps-cs-s/AG0ilSz3wYmCHDCbr3EBMf_7dkfzIuq9Df4nYQh49VGtR067XIkNenpTNpN_B1Zv__k5n9JL5W9u0MB8VWUYySIoN7EW83sHRJkmTiYRlp1orTsXV6kaUYap-ZqN2OwlOFH97K2poFUxEElEzyaV=s1360-w1360-h1020-rw", "Adreca": "Mallorca", "Descripcio": null, "participacio": true, "link": null, "visibilitat": false, "id_talaia": null, "simbologia": "talaies - participen" }, "geometry": { "type": "Point", "coordinates": [ 3.4331771, 39.704774 ] } },
{ "type": "Feature", "properties": { "fid": 154, "Nom": "Torre de So na Gaiana", "Estat": "bo", "Data_edicio": "2025-12-08T12:06:27.878Z", "Tipus": "torre o talaia", "Imatge": "https://www.google.com/maps/place/Torre+So+Na+Gaiana/@39.5769496,2.4171062,3a,75y,90t/data=!3m8!1e2!3m6!1sCIABIhAb8gVsQXn32Hl1MvcMhx-f!2e10!3e12!6shttps:%2F%2Flh3.googleusercontent.com%2Fgps-cs-s%2FAG0ilSy1Oumd3M8s3Jncl9DT_RtyIs8MKjt5M_y5zO9RJvRwdfsX3HtPNy9q_pEFzQ-nEm81acdjO5W4D7ZwTuZcP5xYGwEQs7BLtTPV7DeprmupDuM0-cqcstV1y27suUF4edwxNJeCv5k_Acbz%3Dw86-h186-k-no!7i1848!8i4000!4m15!1m7!3m6!1s0x1298210036c0aced:0xff5793e7b26e2b3f!2sTorre+So+Na+Gaiana!8m2!3d39.5769598!4d2.4170877!16s%2Fg%2F11lydr__pf!3m6!1s0x1298210036c0aced:0xff5793e7b26e2b3f!8m2!3d39.5769598!4d2.4170877!10e5!16s%2Fg%2F11lydr__pf!5m1!1e1?entry=ttu&g_ep=EgoyMDI1MTIwMi4wIKXMDSoASAFQAw%3D%3D#", "Adreca": "Mallorca", "Descripcio": null, "participacio": true, "link": null, "visibilitat": false, "id_talaia": null, "simbologia": "talaies - participen" }, "geometry": { "type": "Point", "coordinates": [ 2.417061847175349, 39.576988663204652 ] } }
]
}
